{"type":"FeatureCollection","features":[{"type":"Feature","properties":{"code":"31.73","provinceCode":"31","name":"Kota Administrasi Jakarta Barat","province":"DKI Jakarta","bbox":[106.6868,-6.2239,106.8275,-6.0964]},"geometry":{"type":"Polygon","coordinates":[[[106.7374,-6.2239],[106.7924,-6.2078],[106.8275,-6.1598],[106.8213,-6.1369],[106.7509,-6.1344],[106.7105,-6.0964],[106.688,-6.0971],[106.6868,-6.1724],[106.7241,-6.1918],[106.7374,-6.2239]]]}},{"type":"Feature","properties":{"code":"31.71","provinceCode":"31","name":"Kota Administrasi Jakarta Pusat","province":"DKI Jakarta","bbox":[106.7924,-6.2078,106.8789,-6.1369]},"geometry":{"type":"Polygon","coordinates":[[[106.7924,-6.2078],[106.8491,-6.2076],[106.8789,-6.1664],[106.8213,-6.1369],[106.8275,-6.1598],[106.7924,-6.2078]]]}},{"type":"Feature","properties":{"code":"31.74","provinceCode":"31","name":"Kota Administrasi Jakarta Selatan","province":"DKI Jakarta","bbox":[106.7374,-6.3359,106.8654,-6.2076]},"geometry":{"type":"Polygon","coordinates":[[[106.7799,-6.3165],[106.84,-6.3359],[106.8584,-6.3052],[106.8654,-6.2233],[106.8491,-6.2076],[106.7924,-6.2078],[106.7374,-6.2239],[106.7573,-6.2776],[106.7799,-6.3165]]]}},{"type":"Feature","properties":{"code":"31.75","provinceCode":"31","name":"Kota Administrasi Jakarta Timur","province":"DKI Jakarta","bbox":[106.84,-6.3725,106.973,-6.1543]},"geometry":{"type":"Polygon","coordinates":[[[106.84,-6.3359],[106.8847,-6.3725],[106.9143,-6.3655],[106.9228,-6.3143],[106.9054,-6.2602],[106.944,-6.2524],[106.973,-6.175],[106.9715,-6.1543],[106.8789,-6.1664],[106.8491,-6.2076],[106.8654,-6.2233],[106.8584,-6.3052],[106.84,-6.3359]]]}},{"type":"Feature","properties":{"code":"31.72","provinceCode":"31","name":"Kota Administrasi Jakarta Utara","province":"DKI Jakarta","bbox":[106.7105,-6.1664,106.9715,-6.0896]},"geometry":{"type":"Polygon","coordinates":[[[106.8789,-6.1664],[106.9715,-6.1543],[106.97,-6.0907],[106.8791,-6.095],[106.8295,-6.1213],[106.725,-6.0896],[106.7105,-6.0964],[106.7509,-6.1344],[106.8213,-6.1369],[106.8789,-6.1664]]]}}]}