{"type":"FeatureCollection","features":[{"type":"Feature","properties":{"code":"34.02","provinceCode":"34","name":"Bantul","province":"Daerah Istimewa Yogyakarta","bbox":[110.2115,-8.0281,110.5195,-7.7682]},"geometry":{"type":"Polygon","coordinates":[[[110.339,-8.0281],[110.3337,-7.9958],[110.3981,-7.9805],[110.4878,-7.9452],[110.4962,-7.8922],[110.4671,-7.8698],[110.5195,-7.8309],[110.4216,-7.8223],[110.3971,-7.7885],[110.3954,-7.8323],[110.3518,-7.8257],[110.3511,-7.7682],[110.2924,-7.8352],[110.275,-7.7932],[110.2334,-7.8152],[110.2216,-7.8379],[110.2737,-7.8932],[110.2115,-7.9855],[110.339,-8.0281]]]}},{"type":"Feature","properties":{"code":"34.03","provinceCode":"34","name":"Gunungkidul","province":"Daerah Istimewa Yogyakarta","bbox":[110.3337,-8.2031,110.8349,-7.7913]},"geometry":{"type":"Polygon","coordinates":[[[110.8349,-8.2031],[110.8287,-8.1677],[110.7856,-8.1507],[110.7895,-8.1162],[110.7556,-8.0244],[110.7856,-7.8167],[110.7148,-7.7913],[110.5436,-7.7926],[110.5195,-7.8309],[110.4671,-7.8698],[110.4962,-7.8922],[110.4878,-7.9452],[110.3981,-7.9805],[110.3337,-7.9958],[110.339,-8.0281],[110.3755,-8.0715],[110.4672,-8.1102],[110.6039,-8.1452],[110.7189,-8.1994],[110.7934,-8.1935],[110.8349,-8.2031]]]}},{"type":"Feature","properties":{"code":"34.71","provinceCode":"34","name":"Kota Yogyakarta","province":"Daerah Istimewa Yogyakarta","bbox":[110.3511,-7.8323,110.3971,-7.7682]},"geometry":{"type":"Polygon","coordinates":[[[110.3511,-7.7682],[110.3518,-7.8257],[110.3954,-7.8323],[110.3971,-7.7885],[110.3511,-7.7682]]]}},{"type":"Feature","properties":{"code":"34.01","provinceCode":"34","name":"Kulon Progo","province":"Daerah Istimewa Yogyakarta","bbox":[110.0035,-7.9855,110.2737,-7.6448]},"geometry":{"type":"Polygon","coordinates":[[[110.0035,-7.8883],[110.1431,-7.9468],[110.2115,-7.9855],[110.2737,-7.8932],[110.2216,-7.8379],[110.2334,-7.8152],[110.2159,-7.7418],[110.2699,-7.706],[110.2638,-7.6463],[110.1414,-7.6448],[110.1312,-7.7394],[110.0637,-7.8121],[110.0416,-7.8844],[110.0035,-7.8883]]]}},{"type":"Feature","properties":{"code":"34.04","provinceCode":"34","name":"Sleman","province":"Daerah Istimewa Yogyakarta","bbox":[110.2159,-7.8352,110.5436,-7.5412]},"geometry":{"type":"Polygon","coordinates":[[[110.2334,-7.8152],[110.275,-7.7932],[110.2924,-7.8352],[110.3511,-7.7682],[110.3971,-7.7885],[110.4216,-7.8223],[110.5195,-7.8309],[110.5436,-7.7926],[110.4918,-7.7422],[110.4452,-7.5412],[110.3913,-7.5945],[110.3036,-7.6554],[110.2699,-7.706],[110.2159,-7.7418],[110.2334,-7.8152]]]}}]}