{"type":"FeatureCollection","features":[{"type":"Feature","properties":{"code":"91.18","provinceCode":"91","name":"Asmat","province":"Papua Selatan","bbox":[137.6778,-6.5238,139.9477,-4.5668]},"geometry":{"type":"Polygon","coordinates":[[[137.6778,-5.2177],[137.6812,-5.237],[137.7402,-5.2867],[137.7233,-5.3518],[137.7619,-5.3495],[137.8159,-5.3798],[137.8631,-5.3501],[138.0166,-5.5086],[138.054,-5.5046],[138.0816,-5.5337],[138.0454,-5.5922],[138.0494,-5.6739],[138.0761,-5.7368],[138.1412,-5.7194],[138.1718,-5.819],[138.2767,-5.841],[138.2505,-5.8852],[138.2554,-5.9243],[138.3089,-5.9941],[138.3546,-6.1049],[138.3955,-6.1698],[138.383,-6.1966],[138.4062,-6.2782],[138.4329,-6.3232],[138.4378,-6.37],[138.6044,-6.5238],[138.7832,-6.4031],[138.8723,-6.1785],[138.9187,-6.1527],[138.9229,-5.6566],[139.0925,-5.5625],[139.1377,-5.6461],[139.5038,-5.5985],[139.4934,-5.5098],[139.5637,-5.4153],[139.6947,-5.3637],[139.7246,-5.3043],[139.7571,-5.2939],[139.8505,-5.2975],[139.8879,-5.2691],[139.9137,-5.2133],[139.8204,-5.1648],[139.873,-5.1495],[139.9189,-5.2053],[139.9477,-5.1649],[139.9288,-5.0907],[139.8879,-5.0633],[139.6665,-5.0629],[139.5792,-5.0527],[139.4982,-5.0023],[139.2279,-4.9986],[139.0777,-4.9863],[139.1483,-4.8792],[139.1678,-4.8355],[139.1646,-4.7418],[139.1142,-4.767],[139.067,-4.8395],[138.9482,-4.8363],[138.9452,-4.8028],[138.9825,-4.7621],[138.9427,-4.7638],[138.8591,-4.7069],[138.8022,-4.7636],[138.8078,-4.7279],[138.6288,-4.7162],[138.5896,-4.6987],[138.5357,-4.7204],[138.5699,-4.7503],[138.5712,-4.7935],[138.4005,-4.8119],[138.3257,-4.6675],[138.2812,-4.6806],[138.2472,-4.6691],[138.1927,-4.7135],[138.1571,-4.6804],[138.1261,-4.609],[138.0889,-4.5668],[138.0314,-4.6098],[137.9971,-4.588],[137.9242,-4.5929],[137.9085,-4.6034],[137.8277,-4.5968],[137.7696,-4.6477],[137.7932,-4.6894],[137.8921,-4.7515],[137.8967,-4.7802],[137.865,-4.8636],[137.8341,-4.9072],[137.8483,-4.9262],[137.8248,-4.9817],[137.7745,-5.0617],[137.7337,-5.0928],[137.6778,-5.2177]]]}},{"type":"Feature","properties":{"code":"91.06","provinceCode":"91","name":"Biak Numfor","province":"Papua","bbox":[134.7944,-1.1997,136.3854,-0.6853]},"geometry":{"type":"MultiPolygon","coordinates":[[[[135.7405,-0.8028],[135.7667,-0.8641],[135.7946,-0.9852],[135.8264,-1.0336],[135.8021,-1.0984],[135.8578,-1.1666],[135.9058,-1.178],[135.944,-1.1461],[136.0354,-1.1472],[136.0647,-1.1814],[136.1346,-1.1997],[136.2406,-1.171],[136.3147,-1.1404],[136.3854,-1.0825],[136.3319,-1.0759],[136.2544,-1.0178],[136.1897,-1.0449],[136.1036,-0.9663],[136.0513,-0.8586],[135.936,-0.7862],[135.8673,-0.7086],[135.8114,-0.6853],[135.7805,-0.7227],[135.7405,-0.8028]]],[[[134.8971,-1.1389],[134.9506,-1.1279],[134.9822,-1.0703],[134.9623,-1.047],[134.9413,-0.9663],[134.8825,-0.9345],[134.8411,-0.934],[134.7952,-0.9839],[134.7944,-1.0322],[134.8353,-1.1029],[134.8971,-1.1389]]]]}},{"type":"Feature","properties":{"code":"91.16","provinceCode":"91","name":"Boven Digoel","province":"Papua Selatan","bbox":[139.7074,-7.2101,141.0006,-5.0397]},"geometry":{"type":"Polygon","coordinates":[[[140.0848,-7.2101],[140.1012,-7.1511],[140.1813,-7.0831],[140.1862,-7.0595],[140.2348,-7.022],[140.2552,-6.9811],[140.2941,-6.9694],[140.398,-6.9008],[140.4907,-6.804],[140.4913,-6.739],[140.534,-6.7125],[140.5416,-6.7972],[140.5839,-6.9439],[140.552,-6.9616],[140.5669,-6.9987],[140.5981,-7.0083],[140.5892,-7.053],[140.6893,-7.0315],[140.8256,-7.0455],[140.7821,-6.9206],[140.7397,-6.8635],[140.7505,-6.838],[140.7077,-6.7382],[140.7194,-6.6959],[140.7616,-6.693],[140.8034,-6.6688],[140.8453,-6.6154],[140.8907,-6.6046],[140.9483,-6.4929],[140.9388,-6.4447],[140.9754,-6.3827],[140.964,-6.3238],[141,-6.3223],[141.0006,-5.3444],[140.7379,-5.2777],[140.7263,-5.233],[140.6264,-5.2642],[140.4691,-5.2196],[140.4348,-5.2279],[140.3875,-5.1962],[140.2971,-5.1553],[140.2561,-5.0592],[140.1864,-5.0397],[140.1119,-5.0531],[140.06,-5.0495],[140.1203,-5.1513],[140.0671,-5.159],[139.9833,-5.0918],[139.9675,-5.1455],[139.9717,-5.2228],[139.9137,-5.2133],[139.8879,-5.2691],[139.8505,-5.2975],[139.7571,-5.2939],[139.7726,-5.3038],[139.8167,-5.5815],[139.7133,-5.6878],[139.7177,-5.7377],[139.8426,-5.8146],[139.8575,-5.9109],[139.8621,-6.1675],[139.8112,-6.2154],[139.8187,-6.2664],[139.7074,-6.3927],[139.7177,-6.4336],[139.7976,-6.4979],[139.9042,-6.4925],[139.9397,-6.4685],[140.066,-6.4656],[140.0758,-6.9201],[140.041,-6.9748],[140.0669,-7.0184],[140.0782,-7.0888],[140.0607,-7.1403],[140.0848,-7.2101]]]}},{"type":"Feature","properties":{"code":"91.28","provinceCode":"91","name":"Deiyai","province":"Papua Tengah","bbox":[136.003,-4.4028,136.9271,-3.9809]},"geometry":{"type":"Polygon","coordinates":[[[136.003,-4.2807],[136.0376,-4.3005],[136.0243,-4.3917],[136.0776,-4.4028],[136.1299,-4.3775],[136.1532,-4.343],[136.2115,-4.3576],[136.2484,-4.33],[136.3157,-4.3457],[136.3804,-4.3407],[136.4256,-4.3204],[136.42,-4.2378],[136.4504,-4.2176],[136.5349,-4.2781],[136.5607,-4.2343],[136.5435,-4.2045],[136.6435,-4.2098],[136.6556,-4.2695],[136.6018,-4.36],[136.6856,-4.4023],[136.7154,-4.3864],[136.7391,-4.3114],[136.7847,-4.3145],[136.8029,-4.2918],[136.7854,-4.2523],[136.8292,-4.2325],[136.8896,-4.1781],[136.9271,-4.1699],[136.9226,-4.1285],[136.775,-4.0785],[136.735,-4.0919],[136.7706,-4.1654],[136.6982,-4.1924],[136.5766,-4.1502],[136.5989,-4.0952],[136.5664,-4.0841],[136.526,-4.0299],[136.4319,-4.0167],[136.2656,-3.9809],[136.2354,-3.9964],[136.1925,-3.9825],[136.1599,-4.0462],[136.1042,-4.0514],[136.105,-4.0908],[136.075,-4.132],[136.0834,-4.1557],[136.0239,-4.2108],[136.003,-4.2807]]]}},{"type":"Feature","properties":{"code":"91.26","provinceCode":"91","name":"Dogiyai","province":"Papua Tengah","bbox":[135.027,-4.2981,136.1925,-3.7837]},"geometry":{"type":"Polygon","coordinates":[[[136.003,-4.2807],[136.0239,-4.2108],[136.0834,-4.1557],[136.075,-4.132],[136.105,-4.0908],[136.1042,-4.0514],[136.1599,-4.0462],[136.1925,-3.9825],[136.1458,-3.9485],[136.1263,-3.8568],[136.1192,-3.9039],[136.06,-3.8861],[135.9546,-3.9153],[135.8467,-3.8921],[135.78,-3.9111],[135.684,-3.8833],[135.6239,-3.9333],[135.5691,-3.9468],[135.5355,-3.9336],[135.4954,-3.8892],[135.4345,-3.8675],[135.4171,-3.8933],[135.3624,-3.8627],[135.0431,-3.7837],[135.027,-3.8322],[135.0975,-3.929],[135.0929,-3.9665],[135.057,-3.9708],[135.0329,-4.0026],[135.1061,-3.9976],[135.1531,-4.0253],[135.1197,-4.1205],[135.1297,-4.1711],[135.2463,-4.1792],[135.2759,-4.1669],[135.31,-4.2012],[135.3657,-4.1966],[135.3954,-4.231],[135.4594,-4.2514],[135.5028,-4.2027],[135.616,-4.2316],[135.6856,-4.1976],[135.7218,-4.2612],[135.8213,-4.2981],[135.9029,-4.2813],[136.003,-4.2807]]]}},{"type":"Feature","properties":{"code":"91.27","provinceCode":"91","name":"Intan Jaya","province":"Papua Tengah","bbox":[136.2478,-4.0323,137.3509,-3.0147]},"geometry":{"type":"Polygon","coordinates":[[[137.1147,-4.0274],[137.1476,-3.9908],[137.1438,-3.9586],[137.241,-3.9313],[137.2551,-3.8819],[137.2461,-3.8407],[137.2071,-3.8123],[137.2067,-3.7787],[137.2839,-3.6744],[137.3509,-3.616],[137.3484,-3.5791],[137.3141,-3.5609],[137.2929,-3.5992],[137.234,-3.6457],[137.1888,-3.6536],[137.2081,-3.5584],[137.171,-3.5509],[137.0906,-3.5584],[137.032,-3.5412],[136.9845,-3.4795],[137.0236,-3.4593],[137.0566,-3.4696],[137.1285,-3.4198],[137.192,-3.4601],[137.2605,-3.3756],[137.2736,-3.2969],[137.2361,-3.259],[137.1934,-3.2387],[137.103,-3.2637],[137.0034,-3.3174],[136.9507,-3.2836],[137.0407,-3.2113],[136.9867,-3.1758],[136.9032,-3.1581],[136.9163,-3.2352],[136.9098,-3.2572],[136.9611,-3.3332],[136.9602,-3.3905],[136.8984,-3.4062],[136.8961,-3.3676],[136.848,-3.2447],[136.8088,-3.2542],[136.7374,-3.2382],[136.7652,-3.1927],[136.7318,-3.1832],[136.6679,-3.1373],[136.6458,-3.1604],[136.6656,-3.2251],[136.5673,-3.254],[136.5327,-3.2258],[136.538,-3.1557],[136.5779,-3.0658],[136.4373,-3.0548],[136.4055,-3.0147],[136.3229,-3.0203],[136.3348,-3.0992],[136.3143,-3.1327],[136.3227,-3.1843],[136.3066,-3.2034],[136.3173,-3.2534],[136.2478,-3.3025],[136.2814,-3.3278],[136.2995,-3.4025],[136.3444,-3.3774],[136.3892,-3.4735],[136.4199,-3.4949],[136.4359,-3.5572],[136.4701,-3.5549],[136.4988,-3.5971],[136.5774,-3.6112],[136.59,-3.6762],[136.5649,-3.7109],[136.7143,-3.7744],[136.7624,-3.7877],[136.7328,-3.8419],[136.7365,-3.8865],[136.7844,-3.8807],[136.9125,-3.9584],[136.9453,-3.9107],[136.9684,-3.9206],[137.0098,-3.8849],[137.0217,-3.9428],[137.095,-4.0323],[137.1183,-4.0314],[137.1147,-4.0274]]]}},{"type":"Feature","properties":{"code":"91.03","provinceCode":"91","name":"Jayapura","province":"Papua","bbox":[139.382,-3.7436,140.6527,-2.3363]},"geometry":{"type":"Polygon","coordinates":[[[140.3842,-3.7365],[140.3519,-3.6834],[140.3882,-3.6391],[140.38,-3.5467],[140.3483,-3.4026],[140.3701,-3.3735],[140.3235,-3.3286],[140.3138,-3.2899],[140.3371,-3.2089],[140.3613,-3.1665],[140.4068,-3.1295],[140.4065,-3.0823],[140.3703,-3.0498],[140.4042,-2.9234],[140.3752,-2.8183],[140.4072,-2.783],[140.4851,-2.752],[140.5292,-2.7787],[140.5902,-2.7449],[140.6277,-2.7519],[140.6211,-2.6149],[140.6255,-2.5668],[140.6038,-2.5184],[140.6527,-2.4763],[140.6084,-2.4405],[140.5608,-2.4503],[140.5125,-2.4298],[140.4576,-2.431],[140.3908,-2.4016],[140.3643,-2.4558],[140.3182,-2.4488],[140.2236,-2.4127],[140.1155,-2.3363],[140.0508,-2.3599],[139.9994,-2.36],[139.9714,-2.4417],[139.7932,-2.408],[139.7521,-2.4076],[139.7507,-2.4464],[139.7813,-2.4879],[139.7627,-2.5268],[139.661,-2.5553],[139.616,-2.5378],[139.5836,-2.5563],[139.5455,-2.6113],[139.4863,-2.623],[139.4311,-2.5934],[139.3894,-2.6517],[139.382,-2.6995],[139.423,-2.7133],[139.4219,-2.7683],[139.5486,-2.8241],[139.5862,-2.8729],[139.5205,-2.9433],[139.5321,-2.9956],[139.5294,-3.0794],[139.4813,-3.1685],[139.4984,-3.2863],[139.4967,-3.3572],[139.4441,-3.4289],[139.4636,-3.4602],[139.4711,-3.5201],[139.5055,-3.5225],[139.5184,-3.658],[139.5926,-3.7051],[139.626,-3.6642],[139.6628,-3.6643],[139.6996,-3.6316],[139.6907,-3.5496],[139.7438,-3.5453],[139.7778,-3.5154],[139.8012,-3.565],[139.8684,-3.59],[139.8958,-3.6211],[139.9583,-3.6314],[140.0212,-3.68],[140.0502,-3.6734],[140.1763,-3.7082],[140.2055,-3.6777],[140.2703,-3.67],[140.2853,-3.7179],[140.3212,-3.7436],[140.3842,-3.7365]]]}},{"type":"Feature","properties":{"code":"91.02","provinceCode":"91","name":"Jayawijaya","province":"Papua Pegunungan","bbox":[138.5833,-4.4782,139.2214,-3.7668]},"geometry":{"type":"Polygon","coordinates":[[[138.6428,-4.2357],[138.6242,-4.3184],[138.5833,-4.4019],[138.6243,-4.4724],[138.7529,-4.4782],[138.777,-4.4408],[138.7739,-4.385],[138.7643,-4.3572],[138.7221,-4.3515],[138.7559,-4.2696],[138.8041,-4.2146],[138.8642,-4.2623],[138.9211,-4.2569],[138.9263,-4.2321],[138.9868,-4.2227],[139.0153,-4.1914],[139.0593,-4.1932],[139.1083,-4.175],[139.2086,-4.1835],[139.2214,-4.1271],[139.1891,-4.0613],[139.1982,-4.0023],[139.1414,-3.9535],[139.0619,-3.9162],[139.0197,-3.9686],[138.9549,-3.916],[138.9493,-3.8789],[138.9045,-3.868],[138.9061,-3.8135],[138.8819,-3.7925],[138.7889,-3.8089],[138.7237,-3.7763],[138.6345,-3.7668],[138.6597,-3.8432],[138.7207,-3.883],[138.7463,-3.9973],[138.6945,-4.0305],[138.6746,-4.0823],[138.6655,-4.1656],[138.6428,-4.2357]]]}},{"type":"Feature","properties":{"code":"91.11","provinceCode":"91","name":"Keerom","province":"Papua","bbox":[140.3138,-4.1142,141.0027,-2.7191]},"geometry":{"type":"Polygon","coordinates":[[[140.3842,-3.7365],[140.4763,-3.7606],[140.5448,-3.7511],[140.6265,-3.7717],[140.648,-3.798],[140.6879,-3.7934],[140.7022,-3.8862],[140.8253,-3.8685],[140.8345,-3.9325],[140.7769,-3.9604],[140.7408,-3.918],[140.7157,-3.9172],[140.6341,-3.9771],[140.5711,-3.9329],[140.542,-3.9666],[140.4985,-3.9408],[140.4973,-3.905],[140.5424,-3.8282],[140.5143,-3.8076],[140.4173,-3.8019],[140.4123,-3.8839],[140.465,-3.9618],[140.5084,-4.0504],[140.5464,-4.0698],[140.5863,-4.1142],[140.6146,-4.0595],[140.6667,-4.0375],[140.6921,-3.984],[140.7181,-4.0202],[140.79,-4.0099],[140.8927,-3.9614],[140.9734,-3.9782],[141.0012,-4.0196],[141.0027,-2.8393],[140.9869,-2.8209],[140.8538,-2.7506],[140.83,-2.7191],[140.7882,-2.7254],[140.728,-2.7633],[140.5902,-2.7449],[140.5292,-2.7787],[140.4851,-2.752],[140.4072,-2.783],[140.3752,-2.8183],[140.4042,-2.9234],[140.3703,-3.0498],[140.4065,-3.0823],[140.4068,-3.1295],[140.3613,-3.1665],[140.3371,-3.2089],[140.3138,-3.2899],[140.3235,-3.3286],[140.3701,-3.3735],[140.3483,-3.4026],[140.38,-3.5467],[140.3882,-3.6391],[140.3519,-3.6834],[140.3842,-3.7365]]]}},{"type":"Feature","properties":{"code":"91.05","provinceCode":"91","name":"Kepulauan Yapen","province":"Papua","bbox":[135.1142,-1.8962,136.8684,-1.4656]},"geometry":{"type":"MultiPolygon","coordinates":[[[[136.5268,-1.8781],[136.6176,-1.8623],[136.6354,-1.8714],[136.7025,-1.8242],[136.757,-1.8265],[136.7959,-1.8122],[136.8684,-1.8146],[136.8619,-1.7754],[136.7941,-1.7417],[136.6366,-1.7252],[136.5844,-1.729],[136.4471,-1.7043],[136.4042,-1.7204],[136.3247,-1.7036],[136.3033,-1.6862],[136.1819,-1.6555],[135.952,-1.6407],[135.8346,-1.6398],[135.6891,-1.6198],[135.6415,-1.6264],[135.4531,-1.6],[135.475,-1.68],[135.549,-1.6651],[135.6741,-1.7062],[135.7095,-1.6898],[135.8224,-1.7361],[135.9125,-1.7556],[135.9874,-1.8198],[136.0264,-1.8194],[136.07,-1.8494],[136.1471,-1.8533],[136.2521,-1.8962],[136.314,-1.8635],[136.4065,-1.8834],[136.5268,-1.8781]]],[[[135.2855,-1.5209],[135.2153,-1.4746],[135.1199,-1.4656],[135.1142,-1.5],[135.1531,-1.5194],[135.2855,-1.5209]]]]}},{"type":"Feature","properties":{"code":"91.71","provinceCode":"91","name":"Kota Jayapura","province":"Papua","bbox":[140.6038,-2.8393,141.0027,-2.4763]},"geometry":{"type":"Polygon","coordinates":[[[141.0027,-2.8393],[141.0013,-2.6044],[140.9224,-2.6216],[140.8136,-2.6069],[140.7859,-2.6221],[140.7064,-2.6287],[140.6897,-2.5949],[140.7389,-2.5148],[140.6937,-2.4782],[140.6527,-2.4763],[140.6038,-2.5184],[140.6255,-2.5668],[140.6211,-2.6149],[140.6277,-2.7519],[140.728,-2.7633],[140.7882,-2.7254],[140.83,-2.7191],[140.8538,-2.7506],[140.9869,-2.8209],[141.0027,-2.8393]]]}},{"type":"Feature","properties":{"code":"91.23","provinceCode":"91","name":"Lanny Jaya","province":"Papua Pegunungan","bbox":[137.9613,-4.2357,138.7463,-3.7614]},"geometry":{"type":"Polygon","coordinates":[[[138.6428,-4.2357],[138.6655,-4.1656],[138.6746,-4.0823],[138.6945,-4.0305],[138.7463,-3.9973],[138.7207,-3.883],[138.6597,-3.8432],[138.6345,-3.7668],[138.6208,-3.7688],[138.5901,-3.8091],[138.5104,-3.8136],[138.3749,-3.7614],[138.3447,-3.7621],[138.3539,-3.8256],[138.318,-3.8378],[138.2843,-3.8214],[138.2386,-3.8491],[138.2142,-3.8852],[138.1532,-3.9111],[138.1042,-3.9117],[138.0795,-3.8733],[138.0012,-3.8971],[137.9613,-3.9386],[137.9704,-3.9639],[137.9621,-4.0409],[138.0055,-4.1205],[138.0274,-4.0917],[138.0663,-4.106],[138.1784,-4.0621],[138.1716,-4.0357],[138.2275,-4.0223],[138.2977,-4.0967],[138.3462,-4.0558],[138.4542,-4.0798],[138.605,-4.1439],[138.6496,-4.1531],[138.6321,-4.2116],[138.6428,-4.2357]]]}},{"type":"Feature","properties":{"code":"91.20","provinceCode":"91","name":"Mamberamo Raya","province":"Papua","bbox":[136.8168,-3.4229,139.2298,-1.4579]},"geometry":{"type":"Polygon","coordinates":[[[138.0792,-3.241],[138.0696,-3.2143],[138.0747,-3.1313],[138.0901,-3.1272],[138.0852,-3.0299],[138.1268,-3.0278],[138.1654,-2.9726],[138.2027,-3.0388],[138.285,-3.0169],[138.3273,-2.9572],[138.4036,-2.967],[138.41,-2.9291],[138.4754,-2.9467],[138.5243,-2.9374],[138.5715,-2.9609],[138.6148,-3.0575],[138.5963,-3.1329],[138.6037,-3.169],[138.5841,-3.2231],[138.6624,-3.3099],[138.7026,-3.3274],[138.6998,-3.2552],[138.7457,-3.1776],[138.8004,-3.1942],[138.8062,-3.2238],[138.8815,-3.2278],[138.9083,-3.2558],[138.8756,-3.3402],[138.8881,-3.3575],[138.8724,-3.4229],[138.9246,-3.3894],[139.0301,-3.2853],[139.0655,-3.2764],[139.0124,-3.2496],[139.0032,-3.2036],[139.0285,-3.1335],[139.0518,-3.1067],[139.1204,-3.1173],[139.1235,-3.0009],[139.1444,-2.9553],[139.1065,-2.8822],[139.1508,-2.8228],[139.1789,-2.7647],[139.2073,-2.7476],[139.2298,-2.6939],[139.2288,-2.6261],[139.1321,-2.6523],[139.112,-2.6207],[139.0541,-2.5947],[139.0339,-2.6109],[138.947,-2.5777],[138.905,-2.5758],[138.8723,-2.5465],[138.7942,-2.5285],[138.7175,-2.5319],[138.6343,-2.5005],[138.5405,-2.5386],[138.4365,-2.5228],[138.4187,-2.48],[138.4148,-2.4207],[138.3843,-2.394],[138.4009,-2.3572],[138.4657,-2.3213],[138.4649,-2.2737],[138.4074,-2.2004],[138.3844,-2.2174],[138.3545,-2.17],[138.3308,-2.1929],[138.2992,-2.1681],[138.2945,-2.1266],[138.3106,-2.0716],[138.252,-2.0331],[138.229,-1.9437],[138.1667,-1.9182],[138.148,-1.889],[138.1596,-1.8363],[138.1583,-1.7646],[138.1738,-1.7455],[138.1472,-1.6276],[138.0968,-1.6147],[138.0246,-1.5722],[137.9964,-1.5388],[137.9492,-1.5345],[137.9339,-1.4579],[137.7483,-1.4785],[137.6114,-1.5457],[137.4782,-1.5991],[137.3944,-1.6592],[137.0943,-1.8064],[137.0885,-1.8514],[137.1444,-1.8989],[137.1563,-1.9319],[137.1906,-1.9439],[137.2175,-1.9832],[137.1903,-2],[137.2284,-2.0566],[137.1594,-2.0958],[137.1085,-2.1112],[137.0446,-2.1054],[137.0051,-2.1312],[136.9386,-2.1286],[136.9082,-2.1796],[136.8747,-2.1759],[136.8168,-2.2025],[136.8594,-2.25],[136.8651,-2.2878],[136.9372,-2.3394],[136.9087,-2.3805],[136.9731,-2.4273],[137.0297,-2.4173],[137.0342,-2.452],[137.1134,-2.5069],[137.158,-2.5866],[137.1916,-2.5637],[137.2527,-2.5917],[137.2674,-2.6332],[137.2601,-2.682],[137.286,-2.7149],[137.2798,-2.8058],[137.3592,-2.8781],[137.3546,-2.9058],[137.3866,-2.9682],[137.4553,-3.0492],[137.5486,-3.0551],[137.5812,-3.0662],[137.6834,-3.0487],[137.7227,-3.0651],[137.7583,-3.0562],[137.7869,-3.0834],[137.9613,-3.0321],[138.0135,-3.0577],[137.9998,-3.1106],[138.007,-3.1848],[138.0792,-3.241]]]}},{"type":"Feature","properties":{"code":"91.21","provinceCode":"91","name":"Mamberamo Tengah","province":"Papua Pegunungan","bbox":[138.6118,-3.8789,139.4636,-3.2558]},"geometry":{"type":"Polygon","coordinates":[[[138.6345,-3.7668],[138.7237,-3.7763],[138.7889,-3.8089],[138.8819,-3.7925],[138.9061,-3.8135],[138.9045,-3.868],[138.9493,-3.8789],[139.0335,-3.8592],[139.1183,-3.8161],[139.106,-3.7456],[139.1564,-3.7626],[139.2067,-3.7408],[139.2638,-3.7716],[139.2791,-3.7473],[139.2886,-3.6671],[139.3217,-3.6293],[139.4178,-3.6004],[139.4316,-3.5255],[139.4636,-3.4602],[139.3735,-3.4359],[139.3557,-3.4832],[139.2833,-3.4678],[139.2481,-3.4387],[139.2067,-3.449],[139.1404,-3.4258],[139.1474,-3.3732],[139.0729,-3.3238],[139.0655,-3.2764],[139.0301,-3.2853],[138.9246,-3.3894],[138.8724,-3.4229],[138.8881,-3.3575],[138.8756,-3.3402],[138.9083,-3.2558],[138.9023,-3.2812],[138.8074,-3.4254],[138.7603,-3.4499],[138.6118,-3.3876],[138.6414,-3.448],[138.7147,-3.5052],[138.7092,-3.5527],[138.7424,-3.6552],[138.6991,-3.7233],[138.648,-3.7113],[138.6208,-3.7688],[138.6345,-3.7668]]]}},{"type":"Feature","properties":{"code":"91.17","provinceCode":"91","name":"Mappi","province":"Papua Selatan","bbox":[138.5645,-7.382,140.0848,-5.2939]},"geometry":{"type":"MultiPolygon","coordinates":[[[[138.6822,-7.1732],[139.5246,-7.3235],[139.6149,-7.382],[139.6592,-7.3725],[139.7842,-7.3733],[139.7923,-7.3496],[140.0848,-7.2101],[140.0607,-7.1403],[140.0782,-7.0888],[140.0669,-7.0184],[140.041,-6.9748],[140.0758,-6.9201],[140.066,-6.4656],[139.9397,-6.4685],[139.9042,-6.4925],[139.7976,-6.4979],[139.7177,-6.4336],[139.7074,-6.3927],[139.8187,-6.2664],[139.8112,-6.2154],[139.8621,-6.1675],[139.8575,-5.9109],[139.8426,-5.8146],[139.7177,-5.7377],[139.7133,-5.6878],[139.8167,-5.5815],[139.7726,-5.3038],[139.7571,-5.2939],[139.7246,-5.3043],[139.6947,-5.3637],[139.5637,-5.4153],[139.4934,-5.5098],[139.5038,-5.5985],[139.1377,-5.6461],[139.0925,-5.5625],[138.9229,-5.6566],[138.9187,-6.1527],[138.8723,-6.1785],[138.7832,-6.4031],[138.6044,-6.5238],[138.684,-6.6078],[138.7952,-6.6672],[138.8244,-6.6967],[138.8306,-6.7811],[138.8649,-6.7966],[138.9066,-6.7815],[138.9489,-6.7977],[138.9137,-6.8384],[138.7968,-6.8514],[138.7641,-6.8828],[138.7004,-6.903],[138.6282,-6.876],[138.5805,-6.9037],[138.5645,-6.933],[138.6187,-7.0154],[138.706,-7.0747],[138.6822,-7.1732]]],[[[138.6538,-6.7445],[138.6239,-6.786],[138.6648,-6.8211],[138.6764,-6.8677],[138.7233,-6.8839],[138.7962,-6.8325],[138.7357,-6.7593],[138.6538,-6.7445]]],[[[138.7081,-6.6328],[138.6692,-6.6547],[138.674,-6.7247],[138.7158,-6.7321],[138.7744,-6.7663],[138.8153,-6.8138],[138.8471,-6.8288],[138.9277,-6.8208],[138.9115,-6.7862],[138.8472,-6.7988],[138.8211,-6.7772],[138.8242,-6.7122],[138.781,-6.6734],[138.7081,-6.6328]]]]}},{"type":"Feature","properties":{"code":"91.01","provinceCode":"91","name":"Merauke","province":"Papua Selatan","bbox":[137.6406,-9.1255,141.02,-6.6154]},"geometry":{"type":"MultiPolygon","coordinates":[[[[138.6822,-7.1732],[138.6847,-7.23],[138.7732,-7.2637],[138.8133,-7.2981],[138.8671,-7.3174],[138.9205,-7.3952],[138.9442,-7.4787],[138.9676,-7.5211],[139.0513,-7.5161],[139.0996,-7.5397],[139.1076,-7.6001],[139.0614,-7.645],[139.0561,-7.6887],[139.019,-7.7496],[139.0243,-7.8379],[139.0127,-7.8604],[138.923,-7.907],[138.9225,-7.9673],[138.9031,-8.0281],[138.9278,-8.0619],[138.9072,-8.0877],[138.8398,-8.1056],[138.857,-8.1868],[138.9228,-8.277],[138.9931,-8.2243],[138.9916,-8.1966],[139.0819,-8.1369],[139.2234,-8.0948],[139.255,-8.1553],[139.3397,-8.2059],[139.4518,-8.1944],[139.5086,-8.1777],[139.5968,-8.1292],[139.7223,-8.0995],[139.9504,-8.1016],[139.9583,-8.1441],[139.9938,-8.1994],[140.0682,-8.2641],[140.1944,-8.348],[140.2271,-8.3558],[140.2437,-8.3915],[140.5054,-8.6209],[140.5291,-8.6868],[140.6242,-8.8234],[140.7279,-8.9067],[140.8176,-9.0141],[140.8888,-9.0824],[141.0196,-9.1255],[141.02,-6.8923],[140.9904,-6.9036],[140.897,-6.8442],[140.8708,-6.7945],[140.8936,-6.7518],[140.8477,-6.7221],[140.8707,-6.6763],[140.8453,-6.6154],[140.8034,-6.6688],[140.7616,-6.693],[140.7194,-6.6959],[140.7077,-6.7382],[140.7505,-6.838],[140.7397,-6.8635],[140.7821,-6.9206],[140.8256,-7.0455],[140.6893,-7.0315],[140.5892,-7.053],[140.5981,-7.0083],[140.5669,-6.9987],[140.552,-6.9616],[140.5839,-6.9439],[140.5416,-6.7972],[140.534,-6.7125],[140.4913,-6.739],[140.4907,-6.804],[140.398,-6.9008],[140.2941,-6.9694],[140.2552,-6.9811],[140.2348,-7.022],[140.1862,-7.0595],[140.1813,-7.0831],[140.1012,-7.1511],[140.0848,-7.2101],[139.7923,-7.3496],[139.7842,-7.3733],[139.6592,-7.3725],[139.6149,-7.382],[139.5246,-7.3235],[138.6822,-7.1732]]],[[[137.7279,-8.4084],[137.8568,-8.3845],[138.2006,-8.3826],[138.3021,-8.3914],[138.4739,-8.347],[138.4909,-8.3189],[138.5356,-8.3037],[138.615,-8.249],[138.6838,-8.1472],[138.7322,-8.1538],[138.8025,-8.134],[138.8382,-8.0734],[138.9104,-8.0768],[138.8892,-8.0232],[138.9027,-7.972],[138.8972,-7.9021],[138.9782,-7.8623],[138.9997,-7.829],[138.99,-7.7764],[139.0022,-7.7286],[139.0331,-7.6871],[139.0431,-7.6244],[139.0805,-7.5681],[138.9412,-7.5463],[138.8912,-7.493],[138.8665,-7.4389],[138.7745,-7.3756],[138.6726,-7.3661],[138.4194,-7.4042],[138.2965,-7.4366],[138.2207,-7.4682],[138.1013,-7.5509],[138.0334,-7.6176],[137.9581,-7.7364],[137.9154,-7.7772],[137.8672,-7.8527],[137.7964,-8.0074],[137.7856,-8.0517],[137.7216,-8.139],[137.695,-8.1897],[137.664,-8.3016],[137.6406,-8.4222],[137.6893,-8.4267],[137.7279,-8.4084]]],[[[138.4993,-8.3229],[138.4755,-8.3504],[138.3447,-8.3831],[138.3611,-8.4142],[138.4425,-8.3827],[138.4993,-8.3229]]],[[[138.821,-8.1449],[138.7453,-8.1651],[138.6786,-8.1704],[138.6719,-8.2176],[138.6433,-8.2537],[138.5868,-8.2899],[138.5635,-8.3524],[138.7345,-8.3862],[138.8971,-8.3861],[138.9134,-8.3622],[138.9134,-8.2967],[138.8474,-8.2652],[138.8467,-8.2026],[138.821,-8.1449]]],[[[138.9975,-8.2309],[138.9242,-8.2796],[138.9757,-8.2909],[138.9975,-8.2309]]]]}},{"type":"Feature","properties":{"code":"91.09","provinceCode":"91","name":"Mimika","province":"Papua Tengah","bbox":[134.8855,-5.2177,137.9707,-3.9976]},"geometry":{"type":"Polygon","coordinates":[[[134.8855,-4.2525],[135.0124,-4.3369],[135.04,-4.3756],[135.2078,-4.4658],[135.3467,-4.4318],[135.5141,-4.4467],[135.7207,-4.4972],[135.7965,-4.4851],[135.9279,-4.4933],[135.9554,-4.5254],[136.1077,-4.6195],[136.2239,-4.6503],[136.3264,-4.6668],[136.455,-4.7228],[136.5474,-4.7906],[136.6944,-4.8419],[136.7362,-4.8705],[136.7681,-4.829],[136.8075,-4.8344],[136.7889,-4.8784],[136.8316,-4.914],[136.9001,-4.8806],[136.9741,-4.9365],[137.0435,-4.9235],[137.0938,-4.9746],[137.1151,-4.9597],[137.2013,-4.9962],[137.2118,-4.9775],[137.2844,-5.0254],[137.3267,-5.0268],[137.34,-5.0564],[137.3977,-5.1084],[137.4494,-5.099],[137.496,-5.145],[137.5476,-5.1374],[137.5523,-5.1686],[137.6358,-5.2135],[137.6778,-5.2177],[137.7337,-5.0928],[137.7745,-5.0617],[137.8248,-4.9817],[137.8483,-4.9262],[137.8341,-4.9072],[137.865,-4.8636],[137.8967,-4.7802],[137.8921,-4.7515],[137.7932,-4.6894],[137.7696,-4.6477],[137.8277,-4.5968],[137.9085,-4.6034],[137.9242,-4.5929],[137.8295,-4.5413],[137.8464,-4.4575],[137.8649,-4.4239],[137.9325,-4.4251],[137.9707,-4.2221],[137.9019,-4.2152],[137.8946,-4.2666],[137.8627,-4.2711],[137.8505,-4.2055],[137.8052,-4.2223],[137.7336,-4.2188],[137.7103,-4.192],[137.6874,-4.2009],[137.5851,-4.1906],[137.5648,-4.1514],[137.5115,-4.1445],[137.488,-4.1205],[137.4064,-4.0741],[137.3254,-4.0719],[137.2824,-4.0542],[137.1627,-4.064],[137.1183,-4.0314],[137.095,-4.0323],[137.0361,-4.0451],[137.0094,-4.0858],[137.0184,-4.1203],[136.9226,-4.1285],[136.9271,-4.1699],[136.8896,-4.1781],[136.8292,-4.2325],[136.7854,-4.2523],[136.8029,-4.2918],[136.7847,-4.3145],[136.7391,-4.3114],[136.7154,-4.3864],[136.6856,-4.4023],[136.6018,-4.36],[136.6556,-4.2695],[136.6435,-4.2098],[136.5435,-4.2045],[136.5607,-4.2343],[136.5349,-4.2781],[136.4504,-4.2176],[136.42,-4.2378],[136.4256,-4.3204],[136.3804,-4.3407],[136.3157,-4.3457],[136.2484,-4.33],[136.2115,-4.3576],[136.1532,-4.343],[136.1299,-4.3775],[136.0776,-4.4028],[136.0243,-4.3917],[136.0376,-4.3005],[136.003,-4.2807],[135.9029,-4.2813],[135.8213,-4.2981],[135.7218,-4.2612],[135.6856,-4.1976],[135.616,-4.2316],[135.5028,-4.2027],[135.4594,-4.2514],[135.3954,-4.231],[135.3657,-4.1966],[135.31,-4.2012],[135.2759,-4.1669],[135.2463,-4.1792],[135.1297,-4.1711],[135.1197,-4.1205],[135.1531,-4.0253],[135.1061,-3.9976],[135.0329,-4.0026],[135.0538,-4.0495],[135.0034,-4.0922],[134.9692,-4.1401],[134.9359,-4.2266],[134.8855,-4.2525]]]}},{"type":"Feature","properties":{"code":"91.04","provinceCode":"91","name":"Nabire","province":"Papua Tengah","bbox":[134.5855,-3.9468,136.3348,-2.7059]},"geometry":{"type":"Polygon","coordinates":[[[135.0431,-3.7837],[135.3624,-3.8627],[135.4171,-3.8933],[135.4345,-3.8675],[135.4954,-3.8892],[135.5355,-3.9336],[135.5691,-3.9468],[135.6239,-3.9333],[135.684,-3.8833],[135.78,-3.9111],[135.8467,-3.8921],[135.9546,-3.9153],[136.06,-3.8861],[136.1192,-3.9039],[136.1263,-3.8568],[136.1028,-3.8017],[136.1136,-3.7399],[136.0782,-3.7362],[136.0159,-3.6915],[136.0006,-3.6271],[136.0192,-3.5557],[136.0516,-3.5453],[136.1165,-3.4718],[136.1595,-3.4438],[136.1536,-3.3714],[136.1846,-3.3405],[136.1869,-3.3022],[136.2478,-3.3025],[136.3173,-3.2534],[136.3066,-3.2034],[136.3227,-3.1843],[136.3143,-3.1327],[136.3348,-3.0992],[136.3229,-3.0203],[136.2977,-2.9731],[136.3085,-2.9355],[136.29,-2.8876],[136.2045,-2.8006],[136.1537,-2.7941],[136.1393,-2.7722],[136.0498,-2.771],[136.0471,-2.7191],[136.0114,-2.7059],[136.0125,-2.7202],[135.9457,-2.7832],[135.9356,-2.9168],[135.9237,-2.9609],[135.8929,-2.9899],[135.8265,-3.0141],[135.774,-3.0606],[135.7611,-3.1052],[135.7015,-3.1495],[135.5961,-3.1943],[135.5708,-3.2389],[135.5586,-3.2997],[135.4712,-3.373],[135.4227,-3.3667],[135.3477,-3.3892],[135.1521,-3.3707],[135.1126,-3.3818],[135.0525,-3.3294],[134.9849,-3.3276],[134.9101,-3.2597],[134.8611,-3.25],[134.8495,-3.1923],[134.8661,-3.1674],[134.814,-3.1035],[134.8187,-3.0118],[134.8528,-2.9995],[134.8462,-2.8985],[134.8063,-2.9148],[134.7765,-2.9864],[134.6866,-2.9669],[134.6673,-2.8664],[134.6614,-2.7563],[134.5855,-2.8048],[134.6042,-2.8845],[134.6111,-2.9763],[134.6312,-3.0618],[134.6171,-3.083],[134.6806,-3.1998],[134.6935,-3.2908],[134.7146,-3.3011],[134.7271,-3.3605],[134.7569,-3.3827],[134.8098,-3.3694],[134.8557,-3.3881],[134.865,-3.4193],[134.9188,-3.4403],[134.9388,-3.4882],[134.9765,-3.5139],[134.9917,-3.5855],[135.0469,-3.6101],[135.0721,-3.5842],[135.1337,-3.5976],[135.1978,-3.5956],[135.1463,-3.6504],[135.1233,-3.6918],[135.051,-3.6888],[135.0181,-3.7187],[135.0431,-3.7837]]]}},{"type":"Feature","properties":{"code":"91.24","provinceCode":"91","name":"Nduga","province":"Papua Pegunungan","bbox":[137.7103,-4.8119,139.008,-4.0223]},"geometry":{"type":"MultiPolygon","coordinates":[[[[138.9825,-4.7621],[139.008,-4.7169],[138.8976,-4.6823],[138.8591,-4.7069],[138.9427,-4.7638],[138.9825,-4.7621]]],[[[138.8022,-4.7636],[138.8406,-4.6803],[138.842,-4.624],[138.809,-4.6128],[138.8133,-4.5276],[138.8312,-4.5013],[138.8123,-4.427],[138.8165,-4.3927],[138.7739,-4.385],[138.777,-4.4408],[138.7529,-4.4782],[138.6243,-4.4724],[138.5833,-4.4019],[138.6242,-4.3184],[138.6428,-4.2357],[138.6321,-4.2116],[138.6496,-4.1531],[138.605,-4.1439],[138.4542,-4.0798],[138.3462,-4.0558],[138.2977,-4.0967],[138.2275,-4.0223],[138.1716,-4.0357],[138.1784,-4.0621],[138.0663,-4.106],[138.0274,-4.0917],[138.0055,-4.1205],[137.9799,-4.1214],[137.925,-4.1625],[137.8396,-4.1893],[137.8408,-4.1501],[137.7359,-4.1207],[137.7103,-4.192],[137.7336,-4.2188],[137.8052,-4.2223],[137.8505,-4.2055],[137.8627,-4.2711],[137.8946,-4.2666],[137.9019,-4.2152],[137.9707,-4.2221],[137.9325,-4.4251],[137.8649,-4.4239],[137.8464,-4.4575],[137.8295,-4.5413],[137.9242,-4.5929],[137.9971,-4.588],[138.0314,-4.6098],[138.0889,-4.5668],[138.1261,-4.609],[138.1571,-4.6804],[138.1927,-4.7135],[138.2472,-4.6691],[138.2812,-4.6806],[138.3257,-4.6675],[138.4005,-4.8119],[138.5712,-4.7935],[138.5699,-4.7503],[138.5357,-4.7204],[138.5896,-4.6987],[138.6288,-4.7162],[138.8078,-4.7279],[138.8022,-4.7636]]],[[[138.7643,-4.3572],[138.8045,-4.3486],[138.7559,-4.2696],[138.7221,-4.3515],[138.7643,-4.3572]]]]}},{"type":"Feature","properties":{"code":"91.08","provinceCode":"91","name":"Paniai","province":"Papua Tengah","bbox":[136.0006,-4.1924,137.2648,-3.3022]},"geometry":{"type":"MultiPolygon","coordinates":[[[[136.1925,-3.9825],[136.2354,-3.9964],[136.2656,-3.9809],[136.4319,-4.0167],[136.526,-4.0299],[136.5664,-4.0841],[136.5989,-4.0952],[136.5766,-4.1502],[136.6982,-4.1924],[136.7706,-4.1654],[136.735,-4.0919],[136.775,-4.0785],[136.9226,-4.1285],[137.0184,-4.1203],[137.0094,-4.0858],[137.0361,-4.0451],[137.095,-4.0323],[137.0217,-3.9428],[137.0098,-3.8849],[136.9684,-3.9206],[136.9453,-3.9107],[136.9125,-3.9584],[136.7844,-3.8807],[136.7365,-3.8865],[136.7328,-3.8419],[136.7624,-3.7877],[136.7143,-3.7744],[136.5649,-3.7109],[136.59,-3.6762],[136.5774,-3.6112],[136.4988,-3.5971],[136.4701,-3.5549],[136.4359,-3.5572],[136.4199,-3.4949],[136.3892,-3.4735],[136.3444,-3.3774],[136.2995,-3.4025],[136.2814,-3.3278],[136.2478,-3.3025],[136.1869,-3.3022],[136.1846,-3.3405],[136.1536,-3.3714],[136.1595,-3.4438],[136.1165,-3.4718],[136.0516,-3.5453],[136.0192,-3.5557],[136.0006,-3.6271],[136.0159,-3.6915],[136.0782,-3.7362],[136.1136,-3.7399],[136.1028,-3.8017],[136.1263,-3.8568],[136.1458,-3.9485],[136.1925,-3.9825]]],[[[137.1147,-4.0274],[137.2502,-4.0029],[137.2648,-3.9563],[137.1438,-3.9586],[137.1476,-3.9908],[137.1147,-4.0274]]]]}},{"type":"Feature","properties":{"code":"91.12","provinceCode":"91","name":"Pegunungan Bintang","province":"Papua Pegunungan","bbox":[139.9416,-5.3444,141.0012,-3.67]},"geometry":{"type":"Polygon","coordinates":[[[140.06,-5.0495],[140.1119,-5.0531],[140.1864,-5.0397],[140.2561,-5.0592],[140.2971,-5.1553],[140.3875,-5.1962],[140.4348,-5.2279],[140.4691,-5.2196],[140.6264,-5.2642],[140.7263,-5.233],[140.7379,-5.2777],[141.0006,-5.3444],[141.0012,-4.0196],[140.9734,-3.9782],[140.8927,-3.9614],[140.79,-4.0099],[140.7181,-4.0202],[140.6921,-3.984],[140.6667,-4.0375],[140.6146,-4.0595],[140.5863,-4.1142],[140.5464,-4.0698],[140.5084,-4.0504],[140.465,-3.9618],[140.4123,-3.8839],[140.4173,-3.8019],[140.5143,-3.8076],[140.5424,-3.8282],[140.4973,-3.905],[140.4985,-3.9408],[140.542,-3.9666],[140.5711,-3.9329],[140.6341,-3.9771],[140.7157,-3.9172],[140.7408,-3.918],[140.7769,-3.9604],[140.8345,-3.9325],[140.8253,-3.8685],[140.7022,-3.8862],[140.6879,-3.7934],[140.648,-3.798],[140.6265,-3.7717],[140.5448,-3.7511],[140.4763,-3.7606],[140.3842,-3.7365],[140.3212,-3.7436],[140.2853,-3.7179],[140.2703,-3.67],[140.2055,-3.6777],[140.1763,-3.7082],[140.1356,-3.6965],[140.1394,-3.7833],[140.1606,-3.8295],[140.147,-3.8884],[140.1227,-3.9133],[140.1524,-3.9565],[140.1207,-3.9979],[140.1194,-4.25],[140.0929,-4.2853],[140.0878,-4.3529],[140.0554,-4.3327],[139.9805,-4.3239],[139.9517,-4.3526],[139.9892,-4.4364],[139.9757,-4.4755],[139.9416,-4.4822],[139.9583,-4.5417],[140.0212,-4.5046],[140.0646,-4.5186],[140.0671,-4.5622],[140.1052,-4.5813],[140.0953,-4.6667],[140.0526,-4.6558],[140.0245,-4.7111],[140.0293,-4.7827],[140.0677,-4.8223],[140.0536,-4.8437],[140.0497,-4.9643],[140.06,-5.0495]]]}},{"type":"Feature","properties":{"code":"91.25","provinceCode":"91","name":"Puncak","province":"Papua Tengah","bbox":[136.8881,-4.2009,138.0795,-3.0487]},"geometry":{"type":"MultiPolygon","coordinates":[[[[137.7103,-4.192],[137.7359,-4.1207],[137.8408,-4.1501],[137.8396,-4.1893],[137.925,-4.1625],[137.9799,-4.1214],[138.0055,-4.1205],[137.9621,-4.0409],[137.9704,-3.9639],[137.9613,-3.9386],[138.0012,-3.8971],[138.0795,-3.8733],[138.0227,-3.8448],[137.9751,-3.8594],[137.9039,-3.8323],[137.8892,-3.774],[137.8213,-3.6817],[137.7603,-3.7237],[137.6901,-3.7115],[137.657,-3.6523],[137.6895,-3.6132],[137.5974,-3.5738],[137.598,-3.5308],[137.5586,-3.4575],[137.5085,-3.4282],[137.4669,-3.3743],[137.4496,-3.2287],[137.565,-3.1028],[137.6509,-3.0925],[137.6834,-3.0487],[137.5812,-3.0662],[137.5486,-3.0551],[137.523,-3.0807],[137.4447,-3.1073],[137.4078,-3.0881],[137.3485,-3.0902],[137.221,-3.1243],[137.1105,-3.1335],[137.0625,-3.1832],[137.0625,-3.2332],[137.022,-3.2828],[137.0228,-3.3075],[137.103,-3.2637],[137.1934,-3.2387],[137.2361,-3.259],[137.2736,-3.2969],[137.2605,-3.3756],[137.192,-3.4601],[137.1285,-3.4198],[137.0566,-3.4696],[137.0236,-3.4593],[136.9845,-3.4795],[137.032,-3.5412],[137.0906,-3.5584],[137.171,-3.5509],[137.2081,-3.5584],[137.1888,-3.6536],[137.234,-3.6457],[137.2929,-3.5992],[137.3141,-3.5609],[137.3484,-3.5791],[137.3509,-3.616],[137.2839,-3.6744],[137.2067,-3.7787],[137.2071,-3.8123],[137.2461,-3.8407],[137.2551,-3.8819],[137.241,-3.9313],[137.1438,-3.9586],[137.2648,-3.9563],[137.2502,-4.0029],[137.1147,-4.0274],[137.1627,-4.064],[137.2824,-4.0542],[137.3254,-4.0719],[137.4064,-4.0741],[137.488,-4.1205],[137.5115,-4.1445],[137.5648,-4.1514],[137.5851,-4.1906],[137.6874,-4.2009],[137.7103,-4.192]]],[[[136.9611,-3.3332],[136.9098,-3.2572],[136.9163,-3.2352],[136.8881,-3.2593],[136.9244,-3.3291],[136.9611,-3.3332]]]]}},{"type":"Feature","properties":{"code":"91.07","provinceCode":"91","name":"Puncak Jaya","province":"Papua Tengah","bbox":[137.4496,-3.9117,138.3539,-3.0321]},"geometry":{"type":"Polygon","coordinates":[[[138.0795,-3.8733],[138.1042,-3.9117],[138.1532,-3.9111],[138.2142,-3.8852],[138.2386,-3.8491],[138.2843,-3.8214],[138.318,-3.8378],[138.3539,-3.8256],[138.3447,-3.7621],[138.2952,-3.7528],[138.2806,-3.6506],[138.195,-3.5986],[138.1036,-3.6029],[138.0753,-3.5865],[138.049,-3.503],[138.0545,-3.4445],[138.0346,-3.4075],[138.0513,-3.3626],[138.0392,-3.3115],[138.0868,-3.3163],[138.1101,-3.2867],[138.0792,-3.241],[138.007,-3.1848],[137.9998,-3.1106],[138.0135,-3.0577],[137.9613,-3.0321],[137.7869,-3.0834],[137.7583,-3.0562],[137.7227,-3.0651],[137.6834,-3.0487],[137.6509,-3.0925],[137.565,-3.1028],[137.4496,-3.2287],[137.4669,-3.3743],[137.5085,-3.4282],[137.5586,-3.4575],[137.598,-3.5308],[137.5974,-3.5738],[137.6895,-3.6132],[137.657,-3.6523],[137.6901,-3.7115],[137.7603,-3.7237],[137.8213,-3.6817],[137.8892,-3.774],[137.9039,-3.8323],[137.9751,-3.8594],[138.0227,-3.8448],[138.0795,-3.8733]]]}},{"type":"Feature","properties":{"code":"91.10","provinceCode":"91","name":"Sarmi","province":"Papua","bbox":[138.1472,-3.4832,139.9994,-1.6276]},"geometry":{"type":"Polygon","coordinates":[[[139.4636,-3.4602],[139.4441,-3.4289],[139.4967,-3.3572],[139.4984,-3.2863],[139.4813,-3.1685],[139.5294,-3.0794],[139.5321,-2.9956],[139.5205,-2.9433],[139.5862,-2.8729],[139.5486,-2.8241],[139.4219,-2.7683],[139.423,-2.7133],[139.382,-2.6995],[139.3894,-2.6517],[139.4311,-2.5934],[139.4863,-2.623],[139.5455,-2.6113],[139.5836,-2.5563],[139.616,-2.5378],[139.661,-2.5553],[139.7627,-2.5268],[139.7813,-2.4879],[139.7507,-2.4464],[139.7521,-2.4076],[139.7932,-2.408],[139.9714,-2.4417],[139.9994,-2.36],[139.8106,-2.3785],[139.7144,-2.3378],[139.644,-2.2918],[139.528,-2.2442],[139.4334,-2.1821],[139.364,-2.1476],[139.2479,-2.1078],[139.1248,-2.0315],[139.0556,-2.0088],[139.0005,-1.9761],[138.9059,-1.9555],[138.8754,-1.9699],[138.8027,-1.9315],[138.7378,-1.8534],[138.6827,-1.8037],[138.6288,-1.7802],[138.4917,-1.7526],[138.3466,-1.7114],[138.1733,-1.63],[138.1472,-1.6276],[138.1738,-1.7455],[138.1583,-1.7646],[138.1596,-1.8363],[138.148,-1.889],[138.1667,-1.9182],[138.229,-1.9437],[138.252,-2.0331],[138.3106,-2.0716],[138.2945,-2.1266],[138.2992,-2.1681],[138.3308,-2.1929],[138.3545,-2.17],[138.3844,-2.2174],[138.4074,-2.2004],[138.4649,-2.2737],[138.4657,-2.3213],[138.4009,-2.3572],[138.3843,-2.394],[138.4148,-2.4207],[138.4187,-2.48],[138.4365,-2.5228],[138.5405,-2.5386],[138.6343,-2.5005],[138.7175,-2.5319],[138.7942,-2.5285],[138.8723,-2.5465],[138.905,-2.5758],[138.947,-2.5777],[139.0339,-2.6109],[139.0541,-2.5947],[139.112,-2.6207],[139.1321,-2.6523],[139.2288,-2.6261],[139.2298,-2.6939],[139.2073,-2.7476],[139.1789,-2.7647],[139.1508,-2.8228],[139.1065,-2.8822],[139.1444,-2.9553],[139.1235,-3.0009],[139.1204,-3.1173],[139.0518,-3.1067],[139.0285,-3.1335],[139.0032,-3.2036],[139.0124,-3.2496],[139.0655,-3.2764],[139.0729,-3.3238],[139.1474,-3.3732],[139.1404,-3.4258],[139.2067,-3.449],[139.2481,-3.4387],[139.2833,-3.4678],[139.3557,-3.4832],[139.3735,-3.4359],[139.4636,-3.4602]]]}},{"type":"Feature","properties":{"code":"91.19","provinceCode":"91","name":"Supiori","province":"Papua","bbox":[135.3634,-0.8844,135.7805,-0.6302]},"geometry":{"type":"MultiPolygon","coordinates":[[[[135.6443,-0.8844],[135.6667,-0.8627],[135.7447,-0.743],[135.7278,-0.7123],[135.6887,-0.7222],[135.6596,-0.6702],[135.497,-0.6521],[135.4105,-0.65],[135.3634,-0.6302],[135.3888,-0.7089],[135.4281,-0.7624],[135.4889,-0.8047],[135.5307,-0.7828],[135.5725,-0.8297],[135.6443,-0.8844]]],[[[135.7405,-0.8028],[135.7805,-0.7227],[135.733,-0.7527],[135.7405,-0.8028]]]]}},{"type":"Feature","properties":{"code":"91.14","provinceCode":"91","name":"Tolikara","province":"Papua Pegunungan","bbox":[138.0346,-3.8136,138.9083,-2.9291]},"geometry":{"type":"Polygon","coordinates":[[[138.3447,-3.7621],[138.3749,-3.7614],[138.5104,-3.8136],[138.5901,-3.8091],[138.6208,-3.7688],[138.648,-3.7113],[138.6991,-3.7233],[138.7424,-3.6552],[138.7092,-3.5527],[138.7147,-3.5052],[138.6414,-3.448],[138.6118,-3.3876],[138.7603,-3.4499],[138.8074,-3.4254],[138.9023,-3.2812],[138.9083,-3.2558],[138.8815,-3.2278],[138.8062,-3.2238],[138.8004,-3.1942],[138.7457,-3.1776],[138.6998,-3.2552],[138.7026,-3.3274],[138.6624,-3.3099],[138.5841,-3.2231],[138.6037,-3.169],[138.5963,-3.1329],[138.6148,-3.0575],[138.5715,-2.9609],[138.5243,-2.9374],[138.4754,-2.9467],[138.41,-2.9291],[138.4036,-2.967],[138.3273,-2.9572],[138.285,-3.0169],[138.2027,-3.0388],[138.1654,-2.9726],[138.1268,-3.0278],[138.0852,-3.0299],[138.0901,-3.1272],[138.0747,-3.1313],[138.0696,-3.2143],[138.0792,-3.241],[138.1101,-3.2867],[138.0868,-3.3163],[138.0392,-3.3115],[138.0513,-3.3626],[138.0346,-3.4075],[138.0545,-3.4445],[138.049,-3.503],[138.0753,-3.5865],[138.1036,-3.6029],[138.195,-3.5986],[138.2806,-3.6506],[138.2952,-3.7528],[138.3447,-3.7621]]]}},{"type":"Feature","properties":{"code":"91.15","provinceCode":"91","name":"Waropen","province":"Papua","bbox":[136.0114,-3.4062,137.5486,-2.2025]},"geometry":{"type":"Polygon","coordinates":[[[136.9163,-3.2352],[136.9032,-3.1581],[136.9867,-3.1758],[137.0407,-3.2113],[136.9507,-3.2836],[137.0034,-3.3174],[137.0228,-3.3075],[137.022,-3.2828],[137.0625,-3.2332],[137.0625,-3.1832],[137.1105,-3.1335],[137.221,-3.1243],[137.3485,-3.0902],[137.4078,-3.0881],[137.4447,-3.1073],[137.523,-3.0807],[137.5486,-3.0551],[137.4553,-3.0492],[137.3866,-2.9682],[137.3546,-2.9058],[137.3592,-2.8781],[137.2798,-2.8058],[137.286,-2.7149],[137.2601,-2.682],[137.2674,-2.6332],[137.2527,-2.5917],[137.1916,-2.5637],[137.158,-2.5866],[137.1134,-2.5069],[137.0342,-2.452],[137.0297,-2.4173],[136.9731,-2.4273],[136.9087,-2.3805],[136.9372,-2.3394],[136.8651,-2.2878],[136.8594,-2.25],[136.8168,-2.2025],[136.7495,-2.2524],[136.7128,-2.2291],[136.6713,-2.261],[136.6057,-2.2531],[136.5758,-2.2194],[136.4288,-2.204],[136.3431,-2.2601],[136.3375,-2.364],[136.2958,-2.4108],[136.2788,-2.4634],[136.2799,-2.5119],[136.2245,-2.6114],[136.1081,-2.6688],[136.0643,-2.6728],[136.0114,-2.7059],[136.0471,-2.7191],[136.0498,-2.771],[136.1393,-2.7722],[136.1537,-2.7941],[136.2045,-2.8006],[136.29,-2.8876],[136.3085,-2.9355],[136.2977,-2.9731],[136.3229,-3.0203],[136.4055,-3.0147],[136.4373,-3.0548],[136.5779,-3.0658],[136.538,-3.1557],[136.5327,-3.2258],[136.5673,-3.254],[136.6656,-3.2251],[136.6458,-3.1604],[136.6679,-3.1373],[136.7318,-3.1832],[136.7652,-3.1927],[136.7374,-3.2382],[136.8088,-3.2542],[136.848,-3.2447],[136.8961,-3.3676],[136.8984,-3.4062],[136.9602,-3.3905],[136.9611,-3.3332],[136.9244,-3.3291],[136.8881,-3.2593],[136.9163,-3.2352]]]}},{"type":"Feature","properties":{"code":"91.13","provinceCode":"91","name":"Yahukimo","province":"Papua Pegunungan","bbox":[138.7559,-5.2228,140.1606,-3.6887]},"geometry":{"type":"Polygon","coordinates":[[[138.9825,-4.7621],[138.9452,-4.8028],[138.9482,-4.8363],[139.067,-4.8395],[139.1142,-4.767],[139.1646,-4.7418],[139.1678,-4.8355],[139.1483,-4.8792],[139.0777,-4.9863],[139.2279,-4.9986],[139.4982,-5.0023],[139.5792,-5.0527],[139.6665,-5.0629],[139.8879,-5.0633],[139.9288,-5.0907],[139.9477,-5.1649],[139.9189,-5.2053],[139.873,-5.1495],[139.8204,-5.1648],[139.9137,-5.2133],[139.9717,-5.2228],[139.9675,-5.1455],[139.9833,-5.0918],[140.0671,-5.159],[140.1203,-5.1513],[140.06,-5.0495],[140.0497,-4.9643],[140.0536,-4.8437],[140.0677,-4.8223],[140.0293,-4.7827],[140.0245,-4.7111],[140.0526,-4.6558],[140.0953,-4.6667],[140.1052,-4.5813],[140.0671,-4.5622],[140.0646,-4.5186],[140.0212,-4.5046],[139.9583,-4.5417],[139.9416,-4.4822],[139.9757,-4.4755],[139.9892,-4.4364],[139.9517,-4.3526],[139.9805,-4.3239],[140.0554,-4.3327],[140.0878,-4.3529],[140.0929,-4.2853],[140.1194,-4.25],[140.1207,-3.9979],[140.1524,-3.9565],[140.1227,-3.9133],[140.147,-3.8884],[140.1606,-3.8295],[140.1394,-3.7833],[140.1356,-3.6965],[140.1255,-3.6955],[140.0801,-3.7191],[139.9852,-3.7418],[139.9533,-3.7024],[139.8604,-3.6887],[139.8357,-3.7368],[139.8425,-3.7826],[139.789,-3.7715],[139.7107,-3.884],[139.6665,-3.9289],[139.6557,-3.985],[139.5794,-4.0376],[139.6021,-4.0791],[139.5125,-4.0552],[139.4639,-4.1096],[139.3805,-4.1012],[139.3632,-4.0685],[139.3278,-4.0921],[139.3331,-4.1244],[139.2783,-4.1645],[139.2456,-4.2046],[139.2086,-4.1835],[139.1083,-4.175],[139.0593,-4.1932],[139.0153,-4.1914],[138.9868,-4.2227],[138.9263,-4.2321],[138.9211,-4.2569],[138.8642,-4.2623],[138.8041,-4.2146],[138.7559,-4.2696],[138.8045,-4.3486],[138.7643,-4.3572],[138.7739,-4.385],[138.8165,-4.3927],[138.8123,-4.427],[138.8312,-4.5013],[138.8133,-4.5276],[138.809,-4.6128],[138.842,-4.624],[138.8406,-4.6803],[138.8022,-4.7636],[138.8591,-4.7069],[138.8976,-4.6823],[139.008,-4.7169],[138.9825,-4.7621]]]}},{"type":"Feature","properties":{"code":"91.22","provinceCode":"91","name":"Yalimo","province":"Papua Pegunungan","bbox":[138.9493,-4.2046,140.1255,-3.4602]},"geometry":{"type":"Polygon","coordinates":[[[139.2086,-4.1835],[139.2456,-4.2046],[139.2783,-4.1645],[139.3331,-4.1244],[139.3278,-4.0921],[139.3632,-4.0685],[139.3805,-4.1012],[139.4639,-4.1096],[139.5125,-4.0552],[139.6021,-4.0791],[139.5794,-4.0376],[139.6557,-3.985],[139.6665,-3.9289],[139.7107,-3.884],[139.789,-3.7715],[139.8425,-3.7826],[139.8357,-3.7368],[139.8604,-3.6887],[139.9533,-3.7024],[139.9852,-3.7418],[140.0801,-3.7191],[140.1255,-3.6955],[140.0502,-3.6734],[140.0212,-3.68],[139.9583,-3.6314],[139.8958,-3.6211],[139.8684,-3.59],[139.8012,-3.565],[139.7778,-3.5154],[139.7438,-3.5453],[139.6907,-3.5496],[139.6996,-3.6316],[139.6628,-3.6643],[139.626,-3.6642],[139.5926,-3.7051],[139.5184,-3.658],[139.5055,-3.5225],[139.4711,-3.5201],[139.4636,-3.4602],[139.4316,-3.5255],[139.4178,-3.6004],[139.3217,-3.6293],[139.2886,-3.6671],[139.2791,-3.7473],[139.2638,-3.7716],[139.2067,-3.7408],[139.1564,-3.7626],[139.106,-3.7456],[139.1183,-3.8161],[139.0335,-3.8592],[138.9493,-3.8789],[138.9549,-3.916],[139.0197,-3.9686],[139.0619,-3.9162],[139.1414,-3.9535],[139.1982,-4.0023],[139.1891,-4.0613],[139.2214,-4.1271],[139.2086,-4.1835]]]}}]}