{"type":"FeatureCollection","features":[{"type":"Feature","properties":{"code":"92.03","provinceCode":"92","name":"Fak Fak","province":"Papua Barat","bbox":[131.983,-3.9652,133.4976,-2.5789]},"geometry":{"type":"Polygon","coordinates":[[[133.4976,-3.0811],[133.4839,-3.0378],[133.4139,-3.0122],[133.3795,-2.977],[133.3444,-2.9933],[133.2797,-2.9916],[133.221,-2.9475],[133.1634,-2.9255],[133.2235,-2.8459],[133.2115,-2.7998],[133.1548,-2.7746],[133.1378,-2.7482],[133.0789,-2.7314],[133.0626,-2.6306],[133.0232,-2.623],[132.9853,-2.5789],[132.9111,-2.6642],[132.8002,-2.7679],[132.7296,-2.8036],[132.6669,-2.7685],[132.6585,-2.7484],[132.591,-2.6949],[132.4866,-2.6808],[132.4659,-2.7119],[132.4188,-2.6826],[132.3765,-2.6822],[132.3266,-2.6605],[132.1913,-2.6538],[132.1432,-2.6642],[132.1036,-2.7419],[131.983,-2.75],[132.004,-2.7803],[132.0563,-2.7813],[132.0229,-2.8497],[132.0157,-2.8913],[132.052,-2.9108],[132.0875,-2.9595],[132.1285,-2.9387],[132.2178,-2.9215],[132.3387,-2.9401],[132.3502,-2.965],[132.4701,-3.0307],[132.5622,-3.1098],[132.5814,-3.1612],[132.6459,-3.193],[132.6365,-3.263],[132.6644,-3.316],[132.7284,-3.3364],[132.7276,-3.281],[132.8083,-3.2606],[132.83,-3.3255],[132.8007,-3.3573],[132.817,-3.4442],[132.8844,-3.4832],[132.9195,-3.575],[132.867,-3.645],[132.8058,-3.6351],[132.7282,-3.6376],[132.7328,-3.6827],[132.8212,-3.884],[132.8371,-3.9652],[132.8689,-3.9541],[133.4871,-3.1161],[133.4976,-3.0811]]]}},{"type":"Feature","properties":{"code":"92.08","provinceCode":"92","name":"Kaimana","province":"Papua Barat","bbox":[132.8371,-4.2547,135.1978,-2.7894]},"geometry":{"type":"MultiPolygon","coordinates":[[[[134.8855,-4.2525],[134.9359,-4.2266],[134.9692,-4.1401],[135.0034,-4.0922],[135.0538,-4.0495],[135.0329,-4.0026],[135.057,-3.9708],[135.0929,-3.9665],[135.0975,-3.929],[135.027,-3.8322],[135.0431,-3.7837],[135.0181,-3.7187],[135.051,-3.6888],[135.1233,-3.6918],[135.1463,-3.6504],[135.1978,-3.5956],[135.1337,-3.5976],[135.0721,-3.5842],[135.0469,-3.6101],[134.9917,-3.5855],[134.9765,-3.5139],[134.9388,-3.4882],[134.9188,-3.4403],[134.865,-3.4193],[134.8557,-3.3881],[134.8098,-3.3694],[134.7569,-3.3827],[134.7271,-3.3605],[134.7146,-3.3011],[134.6533,-3.3149],[134.5975,-3.3117],[134.6199,-3.3608],[134.6146,-3.4044],[134.5884,-3.426],[134.5823,-3.4808],[134.5332,-3.4796],[134.511,-3.4983],[134.3931,-3.4616],[134.3449,-3.4701],[134.2768,-3.3748],[134.2292,-3.2794],[134.198,-3.1815],[134.2038,-3.0777],[134.1969,-3.0243],[134.1409,-3.0161],[134.1261,-2.9645],[134.0635,-2.9277],[134.0097,-2.7901],[133.9295,-2.8175],[133.8433,-2.7894],[133.8095,-2.8069],[133.7602,-2.8048],[133.7237,-2.8215],[133.7304,-2.8748],[133.7118,-2.915],[133.6046,-2.9729],[133.5705,-3.0635],[133.4976,-3.0811],[133.4871,-3.1161],[132.8689,-3.9541],[132.8371,-3.9652],[132.838,-3.985],[132.9005,-4.0285],[132.9172,-4.0831],[133.0152,-4.1177],[133.0421,-4.0654],[133.0772,-4.0537],[133.1254,-4.0676],[133.252,-4.0718],[133.269,-4.0348],[133.3138,-4.0152],[133.3301,-3.9852],[133.4035,-3.9024],[133.4568,-3.8592],[133.4505,-3.8201],[133.4146,-3.7995],[133.3937,-3.7351],[133.4088,-3.6908],[133.4376,-3.6801],[133.5152,-3.6051],[133.5836,-3.5685],[133.5975,-3.5292],[133.55,-3.4544],[133.563,-3.4289],[133.6324,-3.4161],[133.6594,-3.3764],[133.6647,-3.2974],[133.6479,-3.2346],[133.663,-3.2143],[133.649,-3.1209],[133.7019,-3.0719],[133.7219,-3.0362],[133.7898,-3.025],[133.8071,-2.9605],[133.8531,-2.9407],[133.845,-3.0211],[133.8271,-3.089],[133.7799,-3.1112],[133.7726,-3.1748],[133.7257,-3.1697],[133.6687,-3.2263],[133.6684,-3.3177],[133.6993,-3.4059],[133.6394,-3.4461],[133.6212,-3.477],[133.7073,-3.6032],[133.6908,-3.671],[133.7508,-3.6452],[133.7902,-3.648],[133.7861,-3.5978],[133.8364,-3.5594],[133.8395,-3.6315],[133.9082,-3.7045],[133.9136,-3.7846],[133.944,-3.8457],[134.0411,-3.7824],[134.069,-3.8209],[134.1178,-3.7916],[134.1387,-3.7454],[134.1695,-3.7787],[134.1913,-3.8331],[134.1497,-3.8667],[134.1942,-3.9594],[134.2785,-4.007],[134.3026,-4.049],[134.3336,-4.0205],[134.2988,-3.9673],[134.359,-3.9492],[134.35,-3.8945],[134.4096,-3.9214],[134.4389,-3.919],[134.5062,-4.0437],[134.5696,-3.9987],[134.6032,-3.9998],[134.6343,-3.9466],[134.7069,-3.9184],[134.7386,-3.9396],[134.7716,-3.9164],[134.8308,-3.9398],[134.9128,-3.9407],[134.9167,-3.9647],[134.8462,-3.9856],[134.8016,-3.94],[134.7695,-3.9342],[134.683,-3.9786],[134.6521,-4.0778],[134.6293,-4.1175],[134.7115,-4.1369],[134.7346,-4.2068],[134.7637,-4.2082],[134.8341,-4.2547],[134.8855,-4.2525]]],[[[134.3758,-3.9819],[134.3831,-4.0339],[134.4253,-4.0066],[134.3758,-3.9819]]],[[[134.0968,-3.9148],[134.0713,-3.9425],[134.084,-3.9834],[134.1871,-4.0101],[134.0968,-3.9148]]],[[[133.3359,-4.0956],[133.3484,-4.1698],[133.4531,-4.2359],[133.5022,-4.2506],[133.5542,-4.2179],[133.4533,-4.1847],[133.3359,-4.0956]]]]}},{"type":"Feature","properties":{"code":"92.71","provinceCode":"92","name":"Kota Sorong","province":"Papua Barat Daya","bbox":[131.2357,-0.9475,131.3944,-0.7818]},"geometry":{"type":"Polygon","coordinates":[[[131.3573,-0.7818],[131.2357,-0.8304],[131.2511,-0.8774],[131.3343,-0.9475],[131.3944,-0.9351],[131.3704,-0.8896],[131.3764,-0.8404],[131.3573,-0.7818]]]}},{"type":"Feature","properties":{"code":"92.02","provinceCode":"92","name":"Manokwari","province":"Papua Barat","bbox":[133.4371,-1.2408,134.1852,-0.7151]},"geometry":{"type":"Polygon","coordinates":[[[134.0445,-1.2408],[134.0833,-1.2163],[134.1296,-1.2287],[134.1852,-1.1977],[134.1056,-1.133],[134.071,-1.0714],[134.0704,-1.0318],[134.0117,-0.9635],[134.0673,-0.8656],[134.1346,-0.8702],[134.0712,-0.8138],[133.9913,-0.7598],[133.9713,-0.7199],[133.9039,-0.7274],[133.8806,-0.7151],[133.8173,-0.7485],[133.7962,-0.7262],[133.7432,-0.7216],[133.7319,-0.7478],[133.5994,-0.7334],[133.529,-0.7479],[133.4858,-0.7406],[133.4724,-0.7999],[133.4371,-0.8058],[133.4412,-0.863],[133.469,-0.9011],[133.4558,-0.9631],[133.4884,-0.9604],[133.4883,-1.0236],[133.5286,-1.0619],[133.5778,-1.0659],[133.6698,-1.0469],[133.6974,-1.0699],[133.7104,-1.1217],[133.744,-1.091],[133.7322,-1.0378],[133.7683,-1.0241],[133.78,-1.0657],[133.8611,-1.0599],[133.8968,-1.0427],[133.895,-1.1034],[133.9193,-1.1649],[133.9962,-1.2023],[134.0445,-1.2408]]]}},{"type":"Feature","properties":{"code":"92.11","provinceCode":"92","name":"Manokwari Selatan","province":"Papua Barat","bbox":[133.6912,-1.8524,134.2755,-1.1977]},"geometry":{"type":"Polygon","coordinates":[[[134.1019,-1.766],[134.0685,-1.6752],[134.1173,-1.6397],[134.143,-1.5993],[134.2016,-1.5498],[134.2106,-1.4992],[134.198,-1.4559],[134.2383,-1.3628],[134.2755,-1.3365],[134.212,-1.2542],[134.1852,-1.1977],[134.1296,-1.2287],[134.0833,-1.2163],[134.0445,-1.2408],[134.0847,-1.3251],[134.0463,-1.3755],[134.0751,-1.3947],[134.0757,-1.4428],[134.0097,-1.4312],[133.93,-1.5388],[133.8564,-1.507],[133.8437,-1.5584],[133.7864,-1.5141],[133.732,-1.5098],[133.6912,-1.5306],[133.7222,-1.5896],[133.7106,-1.6213],[133.778,-1.6343],[133.8135,-1.6723],[133.8809,-1.7061],[133.9179,-1.8075],[133.9187,-1.8524],[134.0084,-1.8384],[134.0783,-1.8023],[134.1019,-1.766]]]}},{"type":"Feature","properties":{"code":"92.10","provinceCode":"92","name":"Maybrat","province":"Papua Barat Daya","bbox":[132.0713,-1.8849,132.9093,-0.9243]},"geometry":{"type":"Polygon","coordinates":[[[132.0713,-1.0903],[132.0939,-1.25],[132.1146,-1.3239],[132.1691,-1.3467],[132.256,-1.4174],[132.3629,-1.5379],[132.4079,-1.5628],[132.4358,-1.6045],[132.397,-1.7017],[132.4204,-1.7589],[132.4797,-1.7307],[132.5073,-1.7673],[132.4093,-1.7812],[132.4417,-1.8324],[132.4468,-1.8849],[132.4957,-1.826],[132.5223,-1.8202],[132.627,-1.858],[132.6222,-1.8761],[132.7143,-1.8831],[132.7366,-1.8489],[132.7724,-1.7263],[132.7697,-1.654],[132.7873,-1.5739],[132.8232,-1.5562],[132.8565,-1.4936],[132.8544,-1.4498],[132.8866,-1.4222],[132.9093,-1.3626],[132.9048,-1.2938],[132.8109,-1.2184],[132.821,-1.1908],[132.786,-1.1486],[132.6927,-1.176],[132.5783,-1.1452],[132.568,-1.099],[132.6117,-1.063],[132.5636,-1.007],[132.4755,-1.0346],[132.4041,-1.0149],[132.4028,-0.9906],[132.2768,-0.9243],[132.2412,-0.9428],[132.2105,-0.9689],[132.2261,-1.0452],[132.1584,-1.1098],[132.1336,-1.092],[132.0713,-1.0903]]]}},{"type":"Feature","properties":{"code":"92.12","provinceCode":"92","name":"Pegunungan Arfak","province":"Papua Barat","bbox":[133.2386,-1.5584,134.0847,-0.9604]},"geometry":{"type":"Polygon","coordinates":[[[133.2386,-1.2519],[133.2763,-1.2564],[133.4191,-1.3324],[133.4739,-1.337],[133.4636,-1.4711],[133.518,-1.5093],[133.5781,-1.512],[133.655,-1.4939],[133.6912,-1.5306],[133.732,-1.5098],[133.7864,-1.5141],[133.8437,-1.5584],[133.8564,-1.507],[133.93,-1.5388],[134.0097,-1.4312],[134.0757,-1.4428],[134.0751,-1.3947],[134.0463,-1.3755],[134.0847,-1.3251],[134.0445,-1.2408],[133.9962,-1.2023],[133.9193,-1.1649],[133.895,-1.1034],[133.8968,-1.0427],[133.8611,-1.0599],[133.78,-1.0657],[133.7683,-1.0241],[133.7322,-1.0378],[133.744,-1.091],[133.7104,-1.1217],[133.6974,-1.0699],[133.6698,-1.0469],[133.5778,-1.0659],[133.5286,-1.0619],[133.4883,-1.0236],[133.4884,-0.9604],[133.4558,-0.9631],[133.4243,-1.1494],[133.4324,-1.1781],[133.3726,-1.2226],[133.2644,-1.1932],[133.2386,-1.2519]]]}},{"type":"Feature","properties":{"code":"92.05","provinceCode":"92","name":"Raja Ampat","province":"Papua Barat Daya","bbox":[129.7304,-2.0621,131.3126,0.0161]},"geometry":{"type":"MultiPolygon","coordinates":[[[[130.4288,-1.9529],[130.3886,-1.9529],[130.3533,-1.9194],[130.4079,-1.8975],[130.4432,-1.8266],[130.4204,-1.7785],[130.3535,-1.7376],[130.3809,-1.6911],[130.3328,-1.6846],[130.2708,-1.6995],[130.2567,-1.7296],[130.1982,-1.7179],[130.096,-1.7296],[130.0624,-1.7241],[130.0098,-1.7423],[129.9781,-1.7702],[129.8988,-1.7855],[129.8656,-1.821],[129.736,-1.8591],[129.7304,-1.9004],[129.8013,-1.9319],[129.8604,-1.9754],[129.9742,-2.0129],[129.9879,-2.0009],[130.0785,-2.0266],[130.1385,-2.0555],[130.2081,-2.0621],[130.2666,-2.0534],[130.3283,-1.9687],[130.3527,-1.9808],[130.4288,-1.9529]]],[[[129.8399,-1.157],[129.7574,-1.1723],[129.8184,-1.2164],[129.8866,-1.1962],[129.9313,-1.2155],[129.9777,-1.1705],[129.8399,-1.157]]],[[[130.525,-0.0498],[130.5269,-0.0662],[130.4127,-0.1146],[130.3999,-0.0831],[130.2816,-0.1123],[130.3069,-0.1757],[130.3783,-0.1559],[130.3737,-0.206],[130.2865,-0.226],[130.3431,-0.2556],[130.4633,-0.2616],[130.5348,-0.2575],[130.5177,-0.2954],[130.5482,-0.3266],[130.5484,-0.3818],[130.59,-0.377],[130.5816,-0.3175],[130.6945,-0.3001],[130.693,-0.3488],[130.7271,-0.4394],[130.8131,-0.4374],[130.9184,-0.3932],[130.9395,-0.3634],[130.93,-0.3299],[130.853,-0.31],[130.8471,-0.2932],[130.7453,-0.2915],[130.7196,-0.2356],[130.6563,-0.1521],[130.6311,-0.1481],[130.6371,-0.0935],[130.6944,-0.0779],[130.7218,-0.1367],[130.7772,-0.1552],[130.8005,-0.242],[130.8686,-0.235],[130.9418,-0.3422],[131.0358,-0.3372],[131.1024,-0.3223],[131.1899,-0.3422],[131.2471,-0.3799],[131.3056,-0.3036],[131.3126,-0.2666],[131.2954,-0.2208],[131.3119,-0.1844],[131.2583,-0.1359],[131.1906,-0.1227],[131.1328,-0.0706],[131.0461,-0.0627],[131.0402,-0.031],[130.9922,-0.0446],[130.9375,-0.0406],[130.8842,-0.0165],[130.7949,-0.0061],[130.6389,-0.0546],[130.5972,-0.0445],[130.5435,-0.0684],[130.525,-0.0498]]],[[[130.7045,-1.052],[130.8404,-1.1093],[130.8637,-1.1327],[130.9492,-1.128],[131.0345,-1.1953],[131.0685,-1.1039],[131.0813,-1.0331],[131.0495,-0.9306],[131.0315,-0.9126],[130.94,-0.9411],[130.921,-0.8889],[130.8678,-0.8948],[130.7411,-0.9292],[130.6348,-0.9803],[130.7045,-1.052]]],[[[130.6359,-0.5211],[130.6624,-0.5081],[130.6968,-0.4481],[130.6493,-0.4107],[130.5955,-0.4127],[130.5231,-0.468],[130.5047,-0.4387],[130.4687,-0.4725],[130.512,-0.5062],[130.6359,-0.5211]]],[[[130.4872,-0.791],[130.4485,-0.8286],[130.4479,-0.8987],[130.5198,-0.8952],[130.5912,-0.9136],[130.8491,-0.86],[130.8553,-0.7644],[130.767,-0.8193],[130.5665,-0.7938],[130.5509,-0.8366],[130.4864,-0.8268],[130.4872,-0.791]]],[[[129.8912,-0.3979],[129.8571,-0.415],[129.8458,-0.449],[129.8638,-0.4907],[129.9007,-0.4797],[129.9242,-0.4127],[129.8912,-0.3979]]],[[[130.1384,0.0161],[130.1018,0.01],[130.0987,-0.0674],[130.131,-0.0967],[130.1511,-0.0456],[130.1206,-0.0362],[130.1384,0.0161]]],[[[131.1413,-1.0072],[131.0975,-1.0031],[131.0781,-1.0791],[131.1505,-1.0192],[131.1413,-1.0072]]]]}},{"type":"Feature","properties":{"code":"92.01","provinceCode":"92","name":"Sorong","province":"Papua Barat Daya","bbox":[130.7045,-1.5793,132.2876,-0.7156]},"geometry":{"type":"MultiPolygon","coordinates":[[[[131.2967,-0.9155],[131.2717,-0.9177],[131.262,-0.9932],[131.2409,-1.0269],[131.249,-1.0828],[131.1762,-1.221],[131.0567,-1.2531],[131.0237,-1.2855],[130.9948,-1.3866],[130.9352,-1.4204],[130.9964,-1.4571],[131.0936,-1.4494],[131.1648,-1.4629],[131.2077,-1.5226],[131.2819,-1.5041],[131.3352,-1.4641],[131.3302,-1.4275],[131.2697,-1.3858],[131.3152,-1.3716],[131.3239,-1.3296],[131.4029,-1.4328],[131.39,-1.4628],[131.4452,-1.5069],[131.5,-1.4693],[131.5476,-1.4883],[131.5888,-1.453],[131.6639,-1.4494],[131.7038,-1.4262],[131.7395,-1.4425],[131.7453,-1.4944],[131.6943,-1.5472],[131.713,-1.5793],[131.7781,-1.5735],[131.8027,-1.5475],[131.7925,-1.4914],[131.8207,-1.4817],[131.815,-1.386],[131.8377,-1.3446],[131.8915,-1.3146],[131.8958,-1.2825],[131.863,-1.2358],[131.8502,-1.1897],[131.8759,-1.097],[131.9166,-1.0549],[131.9907,-1.0816],[132.0185,-1.0533],[132.0713,-1.0903],[132.1336,-1.092],[132.1584,-1.1098],[132.2261,-1.0452],[132.2105,-0.9689],[132.2412,-0.9428],[132.2479,-0.8947],[132.2876,-0.8107],[132.2364,-0.7913],[132.1923,-0.8007],[132.1574,-0.7735],[132.1135,-0.7828],[132.0754,-0.7395],[132.0104,-0.7194],[131.906,-0.7156],[131.8408,-0.7714],[131.7616,-0.799],[131.7457,-0.7305],[131.5582,-0.7658],[131.5422,-0.7292],[131.5082,-0.7298],[131.4018,-0.7767],[131.3573,-0.7818],[131.3764,-0.8404],[131.3704,-0.8896],[131.3944,-0.9351],[131.3343,-0.9475],[131.2967,-0.9155]]],[[[130.7045,-1.052],[130.7182,-1.0963],[130.7067,-1.1426],[130.7381,-1.1676],[130.7439,-1.2308],[130.7727,-1.2634],[130.8115,-1.268],[130.8559,-1.3434],[130.9006,-1.3208],[130.963,-1.3585],[130.9911,-1.3371],[130.9999,-1.2825],[131.0442,-1.2408],[131.0345,-1.1953],[130.9492,-1.128],[130.8637,-1.1327],[130.8404,-1.1093],[130.7045,-1.052]]],[[[131.332,-1.3543],[131.3107,-1.4076],[131.3621,-1.3997],[131.332,-1.3543]]],[[[131.7346,-1.4473],[131.7153,-1.4278],[131.5928,-1.4649],[131.5869,-1.4841],[131.6367,-1.5452],[131.7326,-1.5088],[131.7346,-1.4473]]]]}},{"type":"Feature","properties":{"code":"92.04","provinceCode":"92","name":"Sorong Selatan","province":"Papua Barat Daya","bbox":[131.7781,-2.2702,132.6941,-1.0533]},"geometry":{"type":"Polygon","coordinates":[[[131.7781,-1.5735],[131.81,-1.6135],[131.8537,-1.5695],[131.8916,-1.6105],[131.8811,-1.6364],[131.9175,-1.7198],[131.9758,-1.7052],[132.027,-1.7144],[131.9216,-1.8137],[131.9478,-1.8489],[131.9285,-1.8815],[131.9889,-1.9328],[131.9743,-1.9726],[132.0343,-2.0225],[132.04,-2.0708],[132.1426,-2.1486],[132.1805,-2.1534],[132.2332,-2.1898],[132.2972,-2.2702],[132.3803,-2.2629],[132.4325,-2.2328],[132.5268,-2.195],[132.5988,-2.1988],[132.6941,-2.0705],[132.6256,-1.9832],[132.6561,-1.962],[132.6222,-1.8761],[132.627,-1.858],[132.5223,-1.8202],[132.4957,-1.826],[132.4468,-1.8849],[132.4417,-1.8324],[132.4093,-1.7812],[132.5073,-1.7673],[132.4797,-1.7307],[132.4204,-1.7589],[132.397,-1.7017],[132.4358,-1.6045],[132.4079,-1.5628],[132.3629,-1.5379],[132.256,-1.4174],[132.1691,-1.3467],[132.1146,-1.3239],[132.0939,-1.25],[132.0713,-1.0903],[132.0185,-1.0533],[131.9907,-1.0816],[131.9166,-1.0549],[131.8759,-1.097],[131.8502,-1.1897],[131.863,-1.2358],[131.8958,-1.2825],[131.8915,-1.3146],[131.8377,-1.3446],[131.815,-1.386],[131.8207,-1.4817],[131.7925,-1.4914],[131.8027,-1.5475],[131.7781,-1.5735]]]}},{"type":"Feature","properties":{"code":"92.09","provinceCode":"92","name":"Tambrauw","province":"Papua Barat Daya","bbox":[131.7457,-1.3554,133.4858,-0.3445]},"geometry":{"type":"Polygon","coordinates":[[[132.9048,-1.2938],[133,-1.3554],[133.1154,-1.2909],[133.154,-1.251],[133.1966,-1.2406],[133.2386,-1.2519],[133.2644,-1.1932],[133.3726,-1.2226],[133.4324,-1.1781],[133.4243,-1.1494],[133.469,-0.9011],[133.4412,-0.863],[133.4371,-0.8058],[133.4724,-0.7999],[133.4858,-0.7406],[133.3985,-0.7416],[133.3192,-0.6973],[133.2354,-0.6052],[133.1766,-0.5837],[133.1462,-0.5437],[133.0999,-0.5481],[133.0722,-0.5164],[133.0309,-0.5196],[132.9727,-0.4944],[132.9545,-0.4539],[132.9013,-0.4635],[132.7422,-0.3919],[132.6822,-0.3718],[132.596,-0.3585],[132.5125,-0.3604],[132.4202,-0.3445],[132.3389,-0.3853],[132.2655,-0.3816],[132.2073,-0.4099],[132.0945,-0.4803],[132.0695,-0.5423],[131.9908,-0.5688],[131.9035,-0.6539],[131.9041,-0.6755],[131.8442,-0.7075],[131.7457,-0.7305],[131.7616,-0.799],[131.8408,-0.7714],[131.906,-0.7156],[132.0104,-0.7194],[132.0754,-0.7395],[132.1135,-0.7828],[132.1574,-0.7735],[132.1923,-0.8007],[132.2364,-0.7913],[132.2876,-0.8107],[132.2479,-0.8947],[132.2412,-0.9428],[132.2768,-0.9243],[132.4028,-0.9906],[132.4041,-1.0149],[132.4755,-1.0346],[132.5636,-1.007],[132.6117,-1.063],[132.568,-1.099],[132.5783,-1.1452],[132.6927,-1.176],[132.786,-1.1486],[132.821,-1.1908],[132.8109,-1.2184],[132.9048,-1.2938]]]}},{"type":"Feature","properties":{"code":"92.06","provinceCode":"92","name":"Teluk Bintuni","province":"Papua Barat","bbox":[132.5988,-3.1188,134.3587,-1.2406]},"geometry":{"type":"MultiPolygon","coordinates":[[[[133.4976,-3.0811],[133.5705,-3.0635],[133.6046,-2.9729],[133.7118,-2.915],[133.7304,-2.8748],[133.7237,-2.8215],[133.7602,-2.8048],[133.8095,-2.8069],[133.8433,-2.7894],[133.9295,-2.8175],[134.0097,-2.7901],[134.0635,-2.9277],[134.1261,-2.9645],[134.1409,-3.0161],[134.1969,-3.0243],[134.2038,-3.0777],[134.2294,-3.1188],[134.2884,-3.1114],[134.3587,-2.9501],[134.3247,-2.9088],[134.3299,-2.8858],[134.3081,-2.7977],[134.3144,-2.7692],[134.2742,-2.7451],[134.2476,-2.6479],[134.2638,-2.613],[134.1913,-2.5711],[134.1579,-2.4997],[134.1164,-2.4589],[134.1007,-2.3924],[134.1042,-2.3075],[134.077,-2.1959],[134.0837,-2.1125],[134.0618,-2.043],[134.0543,-1.889],[134.0084,-1.8384],[133.9187,-1.8524],[133.9179,-1.8075],[133.8809,-1.7061],[133.8135,-1.6723],[133.778,-1.6343],[133.7106,-1.6213],[133.7222,-1.5896],[133.6912,-1.5306],[133.655,-1.4939],[133.5781,-1.512],[133.518,-1.5093],[133.4636,-1.4711],[133.4739,-1.337],[133.4191,-1.3324],[133.2763,-1.2564],[133.1966,-1.2406],[133.154,-1.251],[133.1154,-1.2909],[133,-1.3554],[132.9048,-1.2938],[132.9093,-1.3626],[132.8866,-1.4222],[132.8544,-1.4498],[132.8565,-1.4936],[132.8232,-1.5562],[132.7873,-1.5739],[132.7697,-1.654],[132.7724,-1.7263],[132.7366,-1.8489],[132.7143,-1.8831],[132.6222,-1.8761],[132.6561,-1.962],[132.6256,-1.9832],[132.6941,-2.0705],[132.5988,-2.1988],[132.6414,-2.2862],[132.7153,-2.2973],[132.7831,-2.2493],[132.8608,-2.248],[132.9009,-2.2811],[132.9605,-2.2914],[133.0253,-2.2412],[133.0946,-2.2343],[133.1793,-2.1942],[133.2243,-2.2149],[133.2727,-2.1946],[133.3269,-2.219],[133.4037,-2.2076],[133.4233,-2.2294],[133.5656,-2.2117],[133.6199,-2.2311],[133.6584,-2.2012],[133.6967,-2.1952],[133.7244,-2.1616],[133.7528,-2.1689],[133.8211,-2.1344],[133.8407,-2.0961],[133.8736,-2.1084],[133.9476,-2.0816],[133.9693,-2.1086],[133.937,-2.1603],[133.9419,-2.2319],[133.9998,-2.241],[133.949,-2.3249],[133.9866,-2.3662],[133.9486,-2.3958],[133.9578,-2.467],[133.8993,-2.4811],[133.8264,-2.4451],[133.7836,-2.4896],[133.808,-2.5436],[133.8049,-2.6466],[133.7683,-2.6637],[133.7543,-2.63],[133.6632,-2.6226],[133.6731,-2.5743],[133.6419,-2.5327],[133.561,-2.5798],[133.5286,-2.6421],[133.4368,-2.6463],[133.4118,-2.6952],[133.3802,-2.6565],[133.3715,-2.6023],[133.3743,-2.5072],[133.2749,-2.4277],[133.2122,-2.4121],[133.1937,-2.4285],[133.1259,-2.4374],[133.0403,-2.4988],[132.9853,-2.5789],[133.0232,-2.623],[133.0626,-2.6306],[133.0789,-2.7314],[133.1378,-2.7482],[133.1548,-2.7746],[133.2115,-2.7998],[133.2235,-2.8459],[133.1634,-2.9255],[133.221,-2.9475],[133.2797,-2.9916],[133.3444,-2.9933],[133.3795,-2.977],[133.4139,-3.0122],[133.4839,-3.0378],[133.4976,-3.0811]]],[[[133.7215,-2.5567],[133.6963,-2.6131],[133.7525,-2.6201],[133.7774,-2.5869],[133.7215,-2.5567]]],[[[133.4801,-2.5091],[133.4638,-2.6212],[133.5132,-2.629],[133.5147,-2.5885],[133.4801,-2.5091]]],[[[133.5038,-2.4171],[133.4845,-2.4298],[133.5209,-2.4833],[133.5651,-2.5142],[133.6154,-2.5019],[133.6013,-2.4594],[133.5038,-2.4171]]],[[[133.9352,-2.3275],[133.9031,-2.3317],[133.8668,-2.3717],[133.9486,-2.3946],[133.9865,-2.3675],[133.9352,-2.3275]]],[[[133.9983,-2.2429],[133.9568,-2.2333],[133.9193,-2.3086],[133.8629,-2.3066],[133.8543,-2.3425],[133.9458,-2.3234],[133.9735,-2.3016],[133.9983,-2.2429]]],[[[133.8651,-2.385],[133.8386,-2.3953],[133.8706,-2.4456],[133.9099,-2.4782],[133.9465,-2.4311],[133.9434,-2.3989],[133.8651,-2.385]]],[[[133.8449,-2.2019],[133.805,-2.2517],[133.8422,-2.2868],[133.8449,-2.2019]]],[[[133.8971,-2.1868],[133.8611,-2.2044],[133.8494,-2.2838],[133.8892,-2.2652],[133.8971,-2.1868]]],[[[133.8306,-2.4089],[133.7516,-2.4203],[133.7497,-2.4737],[133.8078,-2.4668],[133.8306,-2.4089]]]]}},{"type":"Feature","properties":{"code":"92.07","provinceCode":"92","name":"Teluk Wondama","province":"Papua Barat","bbox":[134.0084,-3.4983,134.7146,-1.7356]},"geometry":{"type":"MultiPolygon","coordinates":[[[[134.7146,-3.3011],[134.6935,-3.2908],[134.6806,-3.1998],[134.6171,-3.083],[134.6312,-3.0618],[134.6111,-2.9763],[134.6042,-2.8845],[134.5855,-2.8048],[134.6614,-2.7563],[134.6541,-2.6802],[134.6613,-2.6123],[134.6413,-2.5059],[134.5327,-2.4493],[134.477,-2.5229],[134.4622,-2.5933],[134.4974,-2.6601],[134.507,-2.7631],[134.5241,-2.7918],[134.4959,-2.8587],[134.4591,-2.8631],[134.3599,-2.6203],[134.3325,-2.5823],[134.3369,-2.549],[134.2761,-2.4656],[134.2157,-2.421],[134.1761,-2.3562],[134.1543,-2.291],[134.1356,-2.1532],[134.1036,-2.072],[134.1404,-2.0019],[134.1373,-1.942],[134.1013,-1.836],[134.1019,-1.766],[134.0783,-1.8023],[134.0084,-1.8384],[134.0543,-1.889],[134.0618,-2.043],[134.0837,-2.1125],[134.077,-2.1959],[134.1042,-2.3075],[134.1007,-2.3924],[134.1164,-2.4589],[134.1579,-2.4997],[134.1913,-2.5711],[134.2638,-2.613],[134.2476,-2.6479],[134.2742,-2.7451],[134.3144,-2.7692],[134.3081,-2.7977],[134.3299,-2.8858],[134.3247,-2.9088],[134.3587,-2.9501],[134.2884,-3.1114],[134.2294,-3.1188],[134.2038,-3.0777],[134.198,-3.1815],[134.2292,-3.2794],[134.2768,-3.3748],[134.3449,-3.4701],[134.3931,-3.4616],[134.511,-3.4983],[134.5332,-3.4796],[134.5823,-3.4808],[134.5884,-3.426],[134.6146,-3.4044],[134.6199,-3.3608],[134.5975,-3.3117],[134.6533,-3.3149],[134.7146,-3.3011]]],[[[134.5232,-2.3831],[134.5465,-2.4352],[134.5905,-2.395],[134.5626,-2.3683],[134.5232,-2.3831]]],[[[134.3497,-2.1672],[134.3729,-2.1436],[134.385,-2.0818],[134.4052,-2.0753],[134.4047,-2.01],[134.3627,-2.0022],[134.3157,-2.0785],[134.3373,-2.107],[134.3497,-2.1672]]],[[[134.2251,-1.7356],[134.1475,-1.8298],[134.1434,-1.9106],[134.191,-1.9045],[134.2382,-1.7585],[134.2251,-1.7356]]]]}}]}